{"version": 0.6, "generator": "Overpass API 0.7.61.5 4133829e", "osm3s": {"timestamp_osm_base": "2024-02-15T08:20:19Z", "copyright": "The data included in this document is from www.openstreetmap.org. The data is made available under ODbL."}, "elements": [{"type": "node", "id": 523973700, "lat": 38.8966946, "lon": -77.4283243}, {"type": "node", "id": 564726028, "lat": 39.0388036, "lon": -77.3810176}, {"type": "node", "id": 564726029, "lat": 39.0386858, "lon": -77.3808837}, {"type": "node", "id": 564726030, "lat": 39.0385884, "lon": -77.3810245}, {"type": "node", "id": 564726031, "lat": 39.0386762, "lon": -77.3811243}, {"type": "node", "id": 564726032, "lat": 39.0387319, "lon": -77.3811213}, {"type": "node", "id": 565825384, "lat": 39.0504564, "lon": -77.3791971}, {"type": "node", "id": 565825385, "lat": 39.0501524, "lon": -77.3791453}, {"type": "node", "id": 565825386, "lat": 39.0501704, "lon": -77.3789767}, {"type": "node", "id": 565825387, "lat": 39.0504742, "lon": -77.3790306}, {"type": "node", "id": 565841324, "lat": 39.0360002, "lon": -77.4104636}, {"type": "node", "id": 565841329, "lat": 39.0361479, "lon": -77.4105695}, {"type": "node", "id": 571446136, "lat": 39.0407806, "lon": -77.4131018}, {"type": "node", "id": 572653235, "lat": 39.0383728, "lon": -77.3808031, "tags": {"name": "High Up Mart", "shop": "convenience"}}, {"type": "node", "id": 572815125, "lat": 39.0167665, "lon": -77.3747696}, {"type": "node", "id": 572815128, "lat": 39.0166949, "lon": -77.3746327}, {"type": "node", "id": 572815131, "lat": 39.0167626, "lon": -77.3745744}, {"type": "node", "id": 572815135, "lat": 39.016865, "lon": -77.3746849}, {"type": "node", "id": 572833613, "lat": 39.0389483, "lon": -77.3576645}, {"type": "node", "id": 572833619, "lat": 39.0387467, "lon": -77.3577046}, {"type": "node", "id": 572833623, "lat": 39.0387271, "lon": -77.3575424}, {"type": "node", "id": 572833627, "lat": 39.0389286, "lon": -77.3575022}, {"type": "node", "id": 577271827, "lat": 38.9372918, "lon": -77.4108725}, {"type": "node", "id": 599230557, "lat": 38.998863, "lon": -77.3436186, "tags": {"addr:city": "Herndon", "addr:housenumber": "11501", "addr:postcode": "20170-2205", "addr:state": "VA", "addr:street": "Leesburg Pike", "brand": "7-Eleven", "brand:wikidata": "Q259340", "name": "7-Eleven", "phone": "+1 703-450-0248", "shop": "convenience", "website": "https://www.7-eleven.com/locations/va/herndon/11501-leesburg-pike-25633"}}, {"type": "node", "id": 599308053, "lat": 38.976256, "lon": -77.3091923, "tags": {"addr:city": "Vienna", "addr:housenumber": "10508", "addr:postcode": "22182-1333", "addr:state": "VA", "addr:street": "Leesburg Pike", "brand": "7-Eleven", "brand:wikidata": "Q259340", "name": "7-Eleven", "phone": "+1 703-759-5833", "shop": "convenience", "website": "https://www.7-eleven.com/locations/va/vienna/10508-leesburg-pke-10671"}}, {"type": "node", "id": 599392403, "lat": 39.1292167, "lon": -77.1671916}, {"type": "node", "id": 599392404, "lat": 39.1291374, "lon": -77.1671105}, {"type": "node", "id": 599392405, "lat": 39.1292245, "lon": -77.166969}, {"type": "node", "id": 599392406, "lat": 39.1293038, "lon": -77.16705}, {"type": "node", "id": 612013601, "lat": 38.9976966, "lon": -77.4055312}, {"type": "node", "id": 612013602, "lat": 38.9976102, "lon": -77.4054432}, {"type": "node", "id": 612013603, "lat": 38.9974732, "lon": -77.4056036}, {"type": "node", "id": 612013604, "lat": 38.9975827, "lon": -77.4057151}, {"type": "node", "id": 613234396, "lat": 38.9336333, "lon": -77.1773102}, {"type": "node", "id": 613255402, "lat": 39.0075514, "lon": -77.4136845}, {"type": "node", "id": 613255407, "lat": 39.0075196, "lon": -77.413473}, {"type": "node", "id": 613255413, "lat": 39.0073794, "lon": -77.4135077}, {"type": "node", "id": 613255418, "lat": 39.0074113, "lon": -77.4137192}, {"type": "node", "id": 616071007, "lat": 39.0035147, "lon": -77.4315211, "tags": {"name": "Loudoun International Foods", "shop": "convenience"}}, {"type": "node", "id": 618984194, "lat": 38.9078537, "lon": -77.2566039, "tags": {"addr:city": "Vienna", "addr:housenumber": "427", "addr:postcode": "22180-4722", "addr:state": "VA", "addr:street": "Maple Avenue", "brand": "7-Eleven", "brand:wikidata": "Q259340", "name": "7-Eleven", "phone": "+1 703-255-9302", "shop": "convenience", "website": "https://www.7-eleven.com/locations/va/vienna/427-maple-ave-10652"}}, {"type": "node", "id": 654587448, "lat": 39.0051908, "lon": -77.4266438, "tags": {"name": "Prime Mart", "shop": "convenience"}}, {"type": "node", "id": 661442017, "lat": 38.8887717, "lon": -77.2428283, "tags": {"addr:city": "Vienna", "addr:housenumber": "8616", "addr:postcode": "22180-6842", "addr:state": "VA", "addr:street": "Park Street Southeast", "brand": "7-Eleven", "brand:wikidata": "Q259340", "name": "7-Eleven", "operator": "7-Eleven", "phone": "+1 703-876-8921", "shop": "convenience", "website": "https://www.7-eleven.com/locations/va/vienna/8616-park-st-10693"}}, {"type": "node", "id": 702034324, "lat": 38.8567049, "lon": -77.3313536}, {"type": "node", "id": 727882611, "lat": 39.1417644, "lon": -77.2217101}, {"type": "node", "id": 727882612, "lat": 39.1419886, "lon": -77.221646}, {"type": "node", "id": 727882613, "lat": 39.1420082, "lon": -77.221743}, {"type": "node", "id": 727882616, "lat": 39.1417861, "lon": -77.2218176}, {"type": "node", "id": 789297452, "lat": 39.1466556, "lon": -77.4182181}, {"type": "node", "id": 789297625, "lat": 39.1466428, "lon": -77.418109}, {"type": "node", "id": 790661345, "lat": 39.1799477, "lon": -77.2620719}, {"type": "node", "id": 790661503, "lat": 39.1798817, "lon": -77.2622449}, {"type": "node", "id": 808797131, "lat": 38.9807681, "lon": -77.3990456}, {"type": "node", "id": 808797281, "lat": 38.980745, "lon": -77.3989201}, {"type": "node", "id": 808797804, "lat": 38.9809607, "lon": -77.3988523}, {"type": "node", "id": 808797973, "lat": 38.9809843, "lon": -77.3989802}, {"type": "node", "id": 861622197, "lat": 38.8713763, "lon": -77.1547006}, {"type": "node", "id": 861622584, "lat": 38.871354, "lon": -77.1544777}, {"type": "node", "id": 861622904, "lat": 38.8712873, "lon": -77.1546404}, {"type": "node", "id": 921194348, "lat": 38.947242, "lon": -77.3572822, "tags": {"addr:city": "Reston", "addr:housenumber": "11854", "addr:postcode": "20191", "addr:state": "VA", "addr:street": "Sunrise Valley Drive", "brand": "Tiger Mart", "brand:wikidata": "Q57643977", "name": "Tiger Mart", "opening_hours": "00:00-24:00", "phone": "+1 703-860-5996", "shop": "convenience", "website": "https://www.exxon.com"}}, {"type": "node", "id": 989094932, "lat": 38.8981323, "lon": -77.2248048}, {"type": "node", "id": 989094959, "lat": 38.8983094, "lon": -77.2247575}, {"type": "node", "id": 989094965, "lat": 38.8983527, "lon": -77.2249386}, {"type": "node", "id": 989094969, "lat": 38.8981795, "lon": -77.2249858}, {"type": "node", "id": 1070804242, "lat": 38.975082, "lon": -77.1625558, "tags": {"name": "The Market on the Boulevard", "shop": "convenience"}}, {"type": "node", "id": 1144434524, "lat": 39.1279008, "lon": -77.1839663, "tags": {"addr:city": "Gaithersburg", "addr:housenumber": "8946", "addr:postcode": "20877", "addr:state": "MD", "addr:street": "North Westland Drive", "brand": "7-Eleven", "brand:wikidata": "Q259340", "contact:website": "https://www.7-eleven.com/locations/md/gaithersburg/8946-n-westland-dr-11570", "name": "7-Eleven", "opening_hours": "24/7", "shop": "convenience"}}, {"type": "node", "id": 1160603332, "lat": 39.2006063, "lon": -77.2460865}, {"type": "node", "id": 1160603333, "lat": 39.200463, "lon": -77.2460638}, {"type": "node", "id": 1160603334, "lat": 39.200485, "lon": -77.2458329}, {"type": "node", "id": 1160603336, "lat": 39.2006283, "lon": -77.2458556}, {"type": "node", "id": 1222773688, "lat": 38.8993884, "lon": -77.15717, "tags": {"addr:city": "Arlington", "addr:country": "US", "addr:housenumber": "2906", "addr:postcode": "22207", "addr:state": "VA", "addr:street": "North Sycamore Street", "brand": "7-Eleven", "brand:wikidata": "Q259340", "name": "7-Eleven", "name:en": "7-Eleven", "opening_hours": "24/7", "phone": "+1 703-534-5837", "shop": "convenience", "website": "https://www.7-eleven.com/locations/va/arlington/2906-n-sycamore-st-35372"}}, {"type": "node", "id": 1319005175, "lat": 38.9373237, "lon": -77.4109561}, {"type": "node", "id": 1319005183, "lat": 38.9373371, "lon": -77.4109477}, {"type": "node", "id": 1319005187, "lat": 38.9373484, "lon": -77.4108367}, {"type": "node", "id": 1319005188, "lat": 38.9373569, "lon": -77.4108591}, {"type": "node", "id": 1319005191, "lat": 38.9373795, "lon": -77.4110586}, {"type": "node", "id": 1319005198, "lat": 38.9373965, "lon": -77.410834}, {"type": "node", "id": 1319005219, "lat": 38.9374624, "lon": -77.4110063}, {"type": "node", "id": 1369097236, "lat": 39.1555282, "lon": -77.208311, "tags": {"addr:city": "Gaithersburg", "addr:housenumber": "24", "addr:postcode": "20879", "addr:state": "MD", "addr:street": "Montgomery Village Avenue", "amenity": "fuel", "brand": "Exxon", "brand:wikidata": "Q109675651", "name": "Gold Corner II", "shop": "convenience"}}, {"type": "node", "id": 1471354255, "lat": 39.1150601, "lon": -77.5711317, "tags": {"addr:city": "Leesburg", "addr:housenumber": "110", "addr:postcode": "20175-2612", "addr:state": "VA", "addr:street": "Dry Mill Road Southwest", "brand": "7-Eleven", "brand:wikidata": "Q259340", "name": "7-Eleven", "phone": "+1 703-777-6816", "shop": "convenience", "website": "https://www.7-eleven.com/locations/va/leesburg/110-drymill-rd-10638"}}, {"type": "node", "id": 1476620127, "lat": 38.9238993, "lon": -77.2375023}, {"type": "node", "id": 1476620136, "lat": 38.9238276, "lon": -77.2374295}, {"type": "node", "id": 1476620399, "lat": 38.9238694, "lon": -77.2375509}, {"type": "node", "id": 1476620443, "lat": 38.9237977, "lon": -77.237478}, {"type": "node", "id": 1495308141, "lat": 38.848586, "lon": -77.3049565, "tags": {"brand": "7-Eleven", "brand:wikidata": "Q259340", "contact:website": "https://www.7-eleven.com/locations/va/fairfax/3910-university-dr-10647", "name": "7-Eleven", "shop": "convenience"}}, {"type": "node", "id": 1552764506, "lat": 39.1256993, "lon": -77.5466099, "tags": {"addr:city": "Leesburg", "addr:housenumber": "700", "addr:postcode": "20176", "addr:state": "VA", "addr:street": "Fieldstone Drive Northeast", "addr:unit": "100", "brand": "7-Eleven", "brand:wikidata": "Q259340", "name": "7-Eleven", "name:en": "7-Eleven", "opening_hours": "24/7", "phone": "+1 703-771-1863", "shop": "convenience", "website": "https://www.7-eleven.com/locations/va/leesburg/700-fieldstone-dr-ne-34371"}}, {"type": "node", "id": 1570255255, "lat": 38.948058, "lon": -77.4120864}, {"type": "node", "id": 1570255257, "lat": 38.9482799, "lon": -77.4121982}, {"type": "node", "id": 1570255278, "lat": 38.9480706, "lon": -77.4122289}, {"type": "node", "id": 1570255332, "lat": 38.9482672, "lon": -77.4120557}, {"type": "node", "id": 1649872997, "lat": 38.9603295, "lon": -77.4026287}, {"type": "node", "id": 1649873000, "lat": 38.9603249, "lon": -77.4029272}, {"type": "node", "id": 1649873002, "lat": 38.9604406, "lon": -77.4028103}, {"type": "node", "id": 1649873004, "lat": 38.9602139, "lon": -77.4027456}, {"type": "node", "id": 1652434556, "lat": 38.8579881, "lon": -77.3068681}, {"type": "node", "id": 1652434562, "lat": 38.8580496, "lon": -77.3066866}, {"type": "node", "id": 1652434563, "lat": 38.858061, "lon": -77.3069089}, {"type": "node", "id": 1652434573, "lat": 38.8581226, "lon": -77.3067274}, {"type": "node", "id": 1652434589, "lat": 38.8587887, "lon": -77.3071467}, {"type": "node", "id": 1652434592, "lat": 38.8588404, "lon": -77.3069947}, {"type": "node", "id": 1652434593, "lat": 38.8588521, "lon": -77.3071823}, {"type": "node", "id": 1652434602, "lat": 38.8589038, "lon": -77.3070303}, {"type": "node", "id": 1653846143, "lat": 38.9648839, "lon": -77.3970796}, {"type": "node", "id": 1653846145, "lat": 38.9646612, "lon": -77.3970182}, {"type": "node", "id": 1653846161, "lat": 38.9648173, "lon": -77.3969143}, {"type": "node", "id": 1653846179, "lat": 38.9683104, "lon": -77.3818348}, {"type": "node", "id": 1653846180, "lat": 38.9682314, "lon": -77.3821126}, {"type": "node", "id": 1653846182, "lat": 38.9646101, "lon": -77.3973298}, {"type": "node", "id": 1653846192, "lat": 38.9681579, "lon": -77.3819467}, {"type": "node", "id": 1653846196, "lat": 38.964442, "lon": -77.3974553}, {"type": "node", "id": 1653846198, "lat": 38.9647278, "lon": -77.3971836}, {"type": "node", "id": 1653846199, "lat": 38.9645607, "lon": -77.3972202}, {"type": "node", "id": 1653846201, "lat": 38.9643925, "lon": -77.3973457}, {"type": "node", "id": 1653846212, "lat": 38.9683839, "lon": -77.3820007}, {"type": "node", "id": 1655289234, "lat": 38.8967223, "lon": -77.4280773}, {"type": "node", "id": 1655289235, "lat": 38.896795, "lon": -77.4282575}, {"type": "node", "id": 1655289236, "lat": 38.8966219, "lon": -77.4281442}, {"type": "node", "id": 1655504881, "lat": 38.8547025, "lon": -77.3181788}, {"type": "node", "id": 1655504885, "lat": 38.8547662, "lon": -77.3180137}, {"type": "node", "id": 1655504888, "lat": 38.854854, "lon": -77.3182753}, {"type": "node", "id": 1655504901, "lat": 38.8549178, "lon": -77.3181101}, {"type": "node", "id": 1668919651, "lat": 38.8758555, "lon": -77.2139879, "tags": {"name": "7 Market", "shop": "convenience"}}, {"type": "node", "id": 1668928085, "lat": 38.8753118, "lon": -77.2010641, "tags": {"addr:city": "Falls Church", "addr:housenumber": "7461", "addr:postcode": "22042", "addr:state": "VA", "addr:street": "Route 29", "brand": "7-Eleven", "brand:wikidata": "Q259340", "name": "7-Eleven", "phone": "+1 703-876-8925", "shop": "convenience", "website": "https://www.7-eleven.com/locations/va/falls-church/7461-lee-hwy-10706"}}, {"type": "node", "id": 1682610227, "lat": 38.9065558, "lon": -77.2582683}, {"type": "node", "id": 1682610228, "lat": 38.9066135, "lon": -77.2583465}, {"type": "node", "id": 1682610231, "lat": 38.906674, "lon": -77.2581242}, {"type": "node", "id": 1682610232, "lat": 38.9067317, "lon": -77.2582024}, {"type": "node", "id": 1683893775, "lat": 39.1612285, "lon": -77.1632013, "tags": {"brand": "7-Eleven", "brand:wikidata": "Q259340", "contact:website": "https://www.7-eleven.com/locations/md/gaithersburg/8035-snouffer-school-rd-26881", "name": "7-Eleven", "opening_hours": "Mo-Su 00:00-24:00", "shop": "convenience"}}, {"type": "node", "id": 1687184406, "lat": 38.9139647, "lon": -77.2253744}, {"type": "node", "id": 1687184408, "lat": 38.9140131, "lon": -77.2253302}, {"type": "node", "id": 1687184410, "lat": 38.9140316, "lon": -77.2254952}, {"type": "node", "id": 1687184425, "lat": 38.91408, "lon": -77.225451}, {"type": "node", "id": 1707818681, "lat": 39.1083989, "lon": -77.549767}, {"type": "node", "id": 1709092791, "lat": 38.9762499, "lon": -77.4101464}, {"type": "node", "id": 1709092824, "lat": 38.976324, "lon": -77.4099871}, {"type": "node", "id": 1709092827, "lat": 38.9762841, "lon": -77.4099135}, {"type": "node", "id": 1709092829, "lat": 38.9761413, "lon": -77.4099461}, {"type": "node", "id": 1709092832, "lat": 38.9762493, "lon": -77.4098492}, {"type": "node", "id": 1709092836, "lat": 38.9763515, "lon": -77.4100552}, {"type": "node", "id": 1778307095, "lat": 39.1074735, "lon": -77.5687172, "tags": {"addr:city": "Leesburg", "addr:housenumber": "503", "addr:postcode": "20175-3905", "addr:state": "VA", "addr:street": "South King Street", "brand": "7-Eleven", "brand:wikidata": "Q259340", "name": "7-Eleven", "name:en": "7-Eleven", "opening_hours": "24/7", "phone": "+1 703-777-6823", "shop": "convenience", "website": "https://www.7-eleven.com/locations/va/leesburg/503-s-king-street-21325"}}, {"type": "node", "id": 1784091648, "lat": 39.1081404, "lon": -77.5498465}, {"type": "node", "id": 1784091649, "lat": 39.1081688, "lon": -77.5499745}, {"type": "node", "id": 1784091651, "lat": 39.1082, "lon": -77.5500314}, {"type": "node", "id": 1784091652, "lat": 39.1081202, "lon": -77.5501041}, {"type": "node", "id": 1784091654, "lat": 39.1083188, "lon": -77.5496266}, {"type": "node", "id": 1784091656, "lat": 39.1082646, "lon": -77.5498942}, {"type": "node", "id": 1784091657, "lat": 39.1081967, "lon": -77.5499491}, {"type": "node", "id": 1784091658, "lat": 39.1081845, "lon": -77.5497538}, {"type": "node", "id": 1784091659, "lat": 39.1080327, "lon": -77.5499447}, {"type": "node", "id": 1784144550, "lat": 39.113041, "lon": -77.5395315}, {"type": "node", "id": 1784144555, "lat": 39.1130458, "lon": -77.539272}, {"type": "node", "id": 1784144564, "lat": 39.1128976, "lon": -77.539528}, {"type": "node", "id": 1784144631, "lat": 39.1129014, "lon": -77.5392661}, {"type": "node", "id": 1785891896, "lat": 39.1752036, "lon": -77.2710804}, {"type": "node", "id": 1785891902, "lat": 39.175308, "lon": -77.2712018}, {"type": "node", "id": 1785891903, "lat": 39.1753175, "lon": -77.2709172}, {"type": "node", "id": 1785891915, "lat": 39.175422, "lon": -77.2710386}, {"type": "node", "id": 1789086711, "lat": 39.156665, "lon": -77.2655272}, {"type": "node", "id": 1789086714, "lat": 39.1566984, "lon": -77.2656941}, {"type": "node", "id": 1789086721, "lat": 39.1567363, "lon": -77.2656816}, {"type": "node", "id": 1789086725, "lat": 39.1567946, "lon": -77.2656619}, {"type": "node", "id": 1789086726, "lat": 39.1568142, "lon": -77.2654775}, {"type": "node", "id": 1789086731, "lat": 39.1568476, "lon": -77.2656444}, {"type": "node", "id": 1794294013, "lat": 39.1772541, "lon": -77.2701674}, {"type": "node", "id": 1794294016, "lat": 39.1772896, "lon": -77.2702543}, {"type": "node", "id": 1794294018, "lat": 39.1774088, "lon": -77.2700246}, {"type": "node", "id": 1794294020, "lat": 39.1774619, "lon": -77.2701042}, {"type": "node", "id": 1808901726, "lat": 38.9044477, "lon": -77.2031446, "tags": {"addr:city": "Falls Church", "addr:housenumber": "7451", "addr:postcode": "22043-1332", "addr:state": "VA", "addr:street": "Patterson Road", "brand": "7-Eleven", "brand:wikidata": "Q259340", "name": "7-Eleven", "phone": "+1 703-883-1711", "shop": "convenience", "website": "https://www.7-eleven.com/locations/va/falls-church/7451-patterson-rd-10691"}}, {"type": "node", "id": 1813193898, "lat": 39.1171198, "lon": -77.2522968}, {"type": "node", "id": 1813193904, "lat": 39.1171743, "lon": -77.2524678}, {"type": "node", "id": 1813193908, "lat": 39.1171969, "lon": -77.252256}, {"type": "node", "id": 1813193910, "lat": 39.1172295, "lon": -77.2523538}, {"type": "node", "id": 1828203700, "lat": 38.9131776, "lon": -77.2214404}, {"type": "node", "id": 1828203708, "lat": 38.9131631, "lon": -77.2212255}, {"type": "node", "id": 1828203714, "lat": 38.9132456, "lon": -77.2213807}, {"type": "node", "id": 1828203719, "lat": 38.9131514, "lon": -77.2213978}, {"type": "node", "id": 1828203720, "lat": 38.9130946, "lon": -77.2212888}, {"type": "node", "id": 1828354966, "lat": 39.1139186, "lon": -77.1868629}, {"type": "node", "id": 1828354968, "lat": 39.1139713, "lon": -77.187016}, {"type": "node", "id": 1828354970, "lat": 39.1141064, "lon": -77.1869387}, {"type": "node", "id": 1837143399, "lat": 38.8580689, "lon": -77.3068869}, {"type": "node", "id": 1837143401, "lat": 38.8580928, "lon": -77.3068157}, {"type": "node", "id": 1910893401, "lat": 38.8670568, "lon": -77.2284212}, {"type": "node", "id": 1910893426, "lat": 38.8669486, "lon": -77.228226}, {"type": "node", "id": 1910893512, "lat": 38.8670553, "lon": -77.2282247}, {"type": "node", "id": 1910893545, "lat": 38.86695, "lon": -77.2284225}, {"type": "node", "id": 1938132795, "lat": 39.1141736, "lon": -77.5396047}, {"type": "node", "id": 1938132798, "lat": 39.1142522, "lon": -77.5396071}, {"type": "node", "id": 1938132803, "lat": 39.1141772, "lon": -77.5394099}, {"type": "node", "id": 1938132809, "lat": 39.1142558, "lon": -77.5394123}, {"type": "node", "id": 1976899596, "lat": 39.171657, "lon": -77.2353432, "tags": {"addr:city": "Germantown", "addr:housenumber": "19235", "addr:postcode": "20876", "addr:state": "MD", "addr:street": "Frederick Road", "amenity": "fuel", "brand": "Sunoco", "brand:wikidata": "Q1423218", "fuel:e85": "yes", "fuel:octane_87": "yes", "name": "Sunoco", "shop": "convenience"}}, {"type": "node", "id": 2067521702, "lat": 38.8581387, "lon": -77.3924997}, {"type": "node", "id": 2067521706, "lat": 38.8558261, "lon": -77.3955299}, {"type": "node", "id": 2067521719, "lat": 38.8580337, "lon": -77.392649}, {"type": "node", "id": 2067521722, "lat": 38.8579902, "lon": -77.3925451}, {"type": "node", "id": 2067521753, "lat": 38.8580645, "lon": -77.392441}, {"type": "node", "id": 2067521773, "lat": 38.8580746, "lon": -77.3924254}, {"type": "node", "id": 2067521791, "lat": 38.8558361, "lon": -77.3954784}, {"type": "node", "id": 2067521803, "lat": 38.8579696, "lon": -77.3925747}, {"type": "node", "id": 2067521856, "lat": 38.8559108, "lon": -77.3955021}, {"type": "node", "id": 2067521862, "lat": 38.8559009, "lon": -77.3955536}, {"type": "node", "id": 2069272981, "lat": 39.0609461, "lon": -77.4715155}, {"type": "node", "id": 2069273003, "lat": 39.0610563, "lon": -77.47163}, {"type": "node", "id": 2069273019, "lat": 39.0611637, "lon": -77.4715303}, {"type": "node", "id": 2069273022, "lat": 39.0610075, "lon": -77.4716636}, {"type": "node", "id": 2069273034, "lat": 39.0612568, "lon": -77.4712307}, {"type": "node", "id": 2069273041, "lat": 39.0610867, "lon": -77.4713537}, {"type": "node", "id": 2069273044, "lat": 39.0609948, "lon": -77.4714819}, {"type": "node", "id": 2069273047, "lat": 39.0613338, "lon": -77.4714072}, {"type": "node", "id": 2128168312, "lat": 38.9116654, "lon": -77.2216146, "tags": {"addr:city": "Vienna", "addr:housenumber": "1931", "addr:postcode": "22182-3924", "addr:state": "VA", "addr:street": "Old Gallows Road", "brand": "7-Eleven", "brand:wikidata": "Q259340", "name": "7-Eleven", "name:en": "7-Eleven", "opening_hours": "24/7", "phone": "+1 703-883-1713", "shop": "convenience", "website": "https://www.7-eleven.com/locations/va/vienna/1931-old-gallows-rd-10696"}}, {"type": "node", "id": 2134387517, "lat": 39.1172519, "lon": -77.2524252}, {"type": "node", "id": 2136239025, "lat": 39.1140537, "lon": -77.1867857}, {"type": "node", "id": 2175867139, "lat": 38.8792624, "lon": -77.1822396}, {"type": "node", "id": 2175867165, "lat": 38.8793777, "lon": -77.1822518}, {"type": "node", "id": 2175867219, "lat": 38.8792811, "lon": -77.1819483}, {"type": "node", "id": 2175867247, "lat": 38.8793964, "lon": -77.1819605}, {"type": "node", "id": 2180325050, "lat": 38.8939103, "lon": -77.1886826}, {"type": "node", "id": 2180325052, "lat": 38.8940163, "lon": -77.1888521}, {"type": "node", "id": 2180325053, "lat": 38.8939756, "lon": -77.1886152}, {"type": "node", "id": 2180325056, "lat": 38.8940816, "lon": -77.1887847}, {"type": "node", "id": 2180777797, "lat": 38.8684316, "lon": -77.174308}, {"type": "node", "id": 2180777799, "lat": 38.8684467, "lon": -77.1742348}, {"type": "node", "id": 2180777800, "lat": 38.8684614, "lon": -77.1742398}, {"type": "node", "id": 2180777802, "lat": 38.8684837, "lon": -77.1741317}, {"type": "node", "id": 2180777804, "lat": 38.868601, "lon": -77.1743658}, {"type": "node", "id": 2180777806, "lat": 38.8686052, "lon": -77.1742883}, {"type": "node", "id": 2180777807, "lat": 38.8686163, "lon": -77.1742921}, {"type": "node", "id": 2180777809, "lat": 38.8686274, "lon": -77.1741807}, {"type": "node", "id": 2203931036, "lat": 38.894194, "lon": -77.448186, "tags": {"addr:city": "Chantilly", "addr:housenumber": "14533", "addr:postcode": "20151", "addr:state": "VA", "addr:street": "Lee Road", "brand": "7-Eleven", "brand:wikidata": "Q259340", "name": "7-Eleven", "phone": "+1 703-378-1350", "shop": "convenience", "source": "Observation", "website": "https://www.7-eleven.com/locations/va/chantilly/14533-lee-rd-33599"}}, {"type": "node", "id": 2327552042, "lat": 38.8669667, "lon": -77.1942054, "tags": {"addr:city": "Falls Church", "addr:housenumber": "7222", "addr:postcode": "22042-1829", "addr:state": "VA", "addr:street": "Arlington Bvd", "brand": "7-Eleven", "brand:wikidata": "Q259340", "name": "7-Eleven", "phone": "+1 703-876-8926", "shop": "convenience", "website": "https://www.7-eleven.com/locations/va/falls-church/7222-arlington-bvd-10678"}}, {"type": "node", "id": 2342297985, "lat": 39.0145187, "lon": -77.3728121, "tags": {"addr:city": "Sterling", "addr:postcode": "20164-1824", "addr:state": "VA", "brand": "7-Eleven", "brand:wikidata": "Q259340", "name": "7-Eleven", "phone": "+1 703-444-9003", "shop": "convenience", "website": "https://www.7-eleven.com/locations/va/sterling/21800-towne-ctr-unit-201-16385"}}, {"type": "node", "id": 2362601388, "lat": 38.9307482, "lon": -77.3457873, "tags": {"addr:city": "Reston", "addr:housenumber": "2303", "addr:postcode": "20191-2953", "addr:state": "VA", "addr:street": "Soapstone Drive", "addr:unit": "C", "brand": "7-Eleven", "brand:wikidata": "Q259340", "name": "7-Eleven", "phone": "+1 703-447-1400", "shop": "convenience", "source": "knowledge", "website": "https://www.7-eleven.com/locations/va/reston/2303-c-soapstone-rd-26918"}}, {"type": "node", "id": 2366744359, "lat": 38.9165499, "lon": -77.2290276, "tags": {"addr:city": "Vienna", "addr:housenumber": "8217", "addr:postcode": "22182", "addr:state": "VA", "addr:street": "Leesburg Pike", "amenity": "fuel", "brand": "BP", "brand:wikidata": "Q152057", "fuel:diesel": "yes", "name": "BP", "opening_hours": "Mo-Sa 06:00-23:00; Su 06:00-21:00", "phone": "+1 703-448-3550", "shop": "convenience", "toilets": "yes"}}, {"type": "node", "id": 2373010695, "lat": 38.8796652, "lon": -77.3955281}, {"type": "node", "id": 2373011049, "lat": 38.8797332, "lon": -77.3957058}, {"type": "node", "id": 2373011240, "lat": 38.879661, "lon": -77.3957514}, {"type": "node", "id": 2373011257, "lat": 38.879593, "lon": -77.3955737}, {"type": "node", "id": 2376379197, "lat": 38.9555507, "lon": -77.3522955, "tags": {"shop": "convenience"}}, {"type": "node", "id": 2402999840, "lat": 38.85153, "lon": -77.3285455, "tags": {"name": "Halal Supermarket", "shop": "convenience"}}, {"type": "node", "id": 2404320117, "lat": 38.872573, "lon": -77.2457456, "tags": {"addr:city": "Fairfax", "addr:housenumber": "2915", "addr:postcode": "22031-2107", "addr:state": "VA", "addr:street": "Cedar Lane", "brand": "7-Eleven", "brand:wikidata": "Q259340", "name": "7-Eleven", "phone": "+1 703-876-8920", "shop": "convenience", "website": "https://www.7-eleven.com/locations/va/fairfax/2915-cedar-lane-10679"}}, {"type": "node", "id": 2404320149, "lat": 38.8732538, "lon": -77.2354218, "tags": {"shop": "convenience"}}, {"type": "node", "id": 2442048614, "lat": 39.0216752, "lon": -77.4791865}, {"type": "node", "id": 2442048615, "lat": 39.0217627, "lon": -77.4790436}, {"type": "node", "id": 2442048623, "lat": 39.0219009, "lon": -77.4791838}, {"type": "node", "id": 2442048634, "lat": 39.0218134, "lon": -77.4793267}, {"type": "node", "id": 2442094720, "lat": 38.8566316, "lon": -77.331199}, {"type": "node", "id": 2442094722, "lat": 38.8567753, "lon": -77.3310867}, {"type": "node", "id": 2442094727, "lat": 38.8568485, "lon": -77.3312414}, {"type": "node", "id": 2442101423, "lat": 38.8516484, "lon": -77.3222309, "tags": {"brand": "7-Eleven", "brand:wikidata": "Q259340", "contact:website": "https://www.7-eleven.com/locations/va/fairfax/10911-main-st-10635", "name": "7-Eleven", "shop": "convenience"}}, {"type": "node", "id": 2470689470, "lat": 38.9333092, "lon": -77.17662}, {"type": "node", "id": 2470689474, "lat": 38.9333071, "lon": -77.176447}, {"type": "node", "id": 2470689476, "lat": 38.9333754, "lon": -77.1765375}, {"type": "node", "id": 2470689485, "lat": 38.934135, "lon": -77.1763183}, {"type": "node", "id": 2470689487, "lat": 38.9340537, "lon": -77.1761705}, {"type": "node", "id": 2470689489, "lat": 38.9340072, "lon": -77.1762128}, {"type": "node", "id": 2470689491, "lat": 38.9339449, "lon": -77.1760997}, {"type": "node", "id": 2470689493, "lat": 38.9338336, "lon": -77.176201}, {"type": "node", "id": 2470689494, "lat": 38.9339773, "lon": -77.1764619}, {"type": "node", "id": 2622920236, "lat": 38.896651, "lon": -77.4282136}, {"type": "node", "id": 2622920242, "lat": 38.8966781, "lon": -77.428286}, {"type": "node", "id": 2624987610, "lat": 39.0959601, "lon": -77.2064611, "tags": {"addr:city": "Rockville", "addr:housenumber": "10020", "addr:postcode": "20850", "addr:state": "MD", "addr:street": "Darnestown Road", "brand": "7-Eleven", "brand:wikidata": "Q259340", "contact:website": "https://www.7-eleven.com/locations/md/rockville/10020-darnestown-rd-28862", "name": "7-Eleven", "opening_hours": "24/7", "shop": "convenience"}}, {"type": "node", "id": 2666204127, "lat": 38.8909209, "lon": -77.4211932}, {"type": "node", "id": 2666204128, "lat": 38.891043, "lon": -77.4214903}, {"type": "node", "id": 2666204130, "lat": 38.8909601, "lon": -77.4215466}, {"type": "node", "id": 2666204137, "lat": 38.8908379, "lon": -77.4212495}, {"type": "node", "id": 2677033403, "lat": 38.9226154, "lon": -77.4158486}, {"type": "node", "id": 2677033409, "lat": 38.9225753, "lon": -77.4156825}, {"type": "node", "id": 2677033416, "lat": 38.9225188, "lon": -77.4157051}, {"type": "node", "id": 2677033434, "lat": 38.9225076, "lon": -77.4156587}, {"type": "node", "id": 2677033438, "lat": 38.9225973, "lon": -77.4158557}, {"type": "node", "id": 2677033440, "lat": 38.9224614, "lon": -77.4159103}, {"type": "node", "id": 2677033441, "lat": 38.9225525, "lon": -77.4158741}, {"type": "node", "id": 2677033473, "lat": 38.9224101, "lon": -77.4156976}, {"type": "node", "id": 2685242823, "lat": 38.9393247, "lon": -77.5468261}, {"type": "node", "id": 2685331791, "lat": 38.9519466, "lon": -77.5343246, "tags": {"name": "Evergreen Store", "shop": "convenience"}}, {"type": "node", "id": 2711463207, "lat": 38.933241, "lon": -77.1765295}, {"type": "node", "id": 2712362859, "lat": 38.9337032, "lon": -77.1782818, "tags": {"addr:city": "Mclean", "addr:housenumber": "1436", "addr:postcode": "22101-3701", "addr:state": "VA", "addr:street": "Chain Bridge Road", "brand": "7-Eleven", "brand:wikidata": "Q259340", "name": "7-Eleven", "phone": "+1 703-893-3571", "shop": "convenience", "website": "https://www.7-eleven.com/locations/va/mclean/1436-chain-bridge-rd-28525"}}, {"type": "node", "id": 2717365765, "lat": 38.9496775, "lon": -77.4108222, "tags": {"addr:city": "Herndon", "addr:housenumber": "2501-O14", "addr:postcode": "20171", "addr:state": "VA", "addr:street": "Centerville Road", "brand": "7-Eleven", "brand:wikidata": "Q259340", "name": "7-Eleven", "opening_hours": "24/7", "phone": "+1 703-713-3869", "shop": "convenience", "website": "https://www.7-eleven.com/locations/va/herndon/2501-mcnair-farms-dr-29931"}}, {"type": "node", "id": 2759404488, "lat": 38.9226462, "lon": -77.5061685}, {"type": "node", "id": 2759404490, "lat": 38.9225896, "lon": -77.5060367}, {"type": "node", "id": 2759404498, "lat": 38.9226134, "lon": -77.5059288}, {"type": "node", "id": 2786959987, "lat": 38.9852896, "lon": -77.4291359}, {"type": "node", "id": 2786959997, "lat": 38.9852545, "lon": -77.4291247}, {"type": "node", "id": 2786960002, "lat": 38.9852709, "lon": -77.429433}, {"type": "node", "id": 2786960009, "lat": 38.9851905, "lon": -77.4294027}, {"type": "node", "id": 2862169946, "lat": 38.8647128, "lon": -77.1963896}, {"type": "node", "id": 2862169947, "lat": 38.8647241, "lon": -77.1961606}, {"type": "node", "id": 2876113694, "lat": 38.8646124, "lon": -77.1963814}, {"type": "node", "id": 2876113695, "lat": 38.8646233, "lon": -77.1961524}, {"type": "node", "id": 2880488410, "lat": 39.1077977, "lon": -77.558836, "tags": {"shop": "convenience"}}, {"type": "node", "id": 2880912509, "lat": 39.0611234, "lon": -77.471438}, {"type": "node", "id": 2880912534, "lat": 39.061295, "lon": -77.4713182}, {"type": "node", "id": 3050696466, "lat": 39.0178982, "lon": -77.5194631}, {"type": "node", "id": 3050696467, "lat": 39.0180206, "lon": -77.5194602}, {"type": "node", "id": 3050696468, "lat": 39.0180821, "lon": -77.5193806}, {"type": "node", "id": 3050696469, "lat": 39.0180798, "lon": -77.5192213}, {"type": "node", "id": 3050696470, "lat": 39.0179564, "lon": -77.5192242}, {"type": "node", "id": 3050696471, "lat": 39.0178959, "lon": -77.5193049}, {"type": "node", "id": 3050730502, "lat": 39.0111366, "lon": -77.4919775}, {"type": "node", "id": 3050730503, "lat": 39.0111662, "lon": -77.4918111}, {"type": "node", "id": 3050730504, "lat": 39.0114041, "lon": -77.4918806}, {"type": "node", "id": 3052116295, "lat": 38.9391649, "lon": -77.5469288}, {"type": "node", "id": 3052116296, "lat": 38.9391009, "lon": -77.5467641}, {"type": "node", "id": 3052116297, "lat": 38.9392607, "lon": -77.5466614}, {"type": "node", "id": 3054400013, "lat": 38.9964283, "lon": -77.4823402, "tags": {"addr:city": "Ashburn", "addr:housenumber": "22405", "addr:postcode": "20148", "addr:state": "VA", "addr:street": "Flagstaff Plaza", "brand": "7-Eleven", "brand:wikidata": "Q259340", "name": "7-Eleven", "opening_hours": "24/7", "phone": "+1 703-858-5397", "shop": "convenience", "website": "https://www.7-eleven.com/locations/va/ashburn/22405-flagstaff-plaza-40050"}}, {"type": "node", "id": 3054657633, "lat": 39.0113737, "lon": -77.4920514}, {"type": "node", "id": 3060398742, "lat": 39.029317, "lon": -77.4882008}, {"type": "node", "id": 3060398744, "lat": 39.0293774, "lon": -77.4882783}, {"type": "node", "id": 3060398758, "lat": 39.0293495, "lon": -77.4882425}, {"type": "node", "id": 3060398783, "lat": 39.029437, "lon": -77.4882014}, {"type": "node", "id": 3060398789, "lat": 39.0293314, "lon": -77.488066}, {"type": "node", "id": 3060398799, "lat": 39.0292719, "lon": -77.4881428}, {"type": "node", "id": 3087290034, "lat": 38.8965622, "lon": -77.424101, "tags": {"name": "Overstock Outlet", "shop": "convenience"}}, {"type": "node", "id": 3102680426, "lat": 38.9334389, "lon": -77.1773767}, {"type": "node", "id": 3102680427, "lat": 38.9334978, "lon": -77.177463}, {"type": "node", "id": 3102680428, "lat": 38.9335744, "lon": -77.1772239}, {"type": "node", "id": 3115765857, "lat": 39.1419184, "lon": -77.2216585}, {"type": "node", "id": 3190977229, "lat": 39.1955132, "lon": -77.2449489, "tags": {"shop": "convenience"}}, {"type": "node", "id": 3190977231, "lat": 39.1785976, "lon": -77.2391093, "tags": {"shop": "convenience"}}, {"type": "node", "id": 3190977232, "lat": 39.1717201, "lon": -77.2352688, "tags": {"shop": "convenience"}}, {"type": "node", "id": 3190977234, "lat": 39.1630929, "lon": -77.226528, "tags": {"brand": "7-Eleven", "brand:wikidata": "Q259340", "contact:website": "https://www.7-eleven.com/locations/md/gaithersburg/3-professional-dr-32879", "name": "7-Eleven", "phone": "+1-301-869-2601", "shop": "convenience"}}, {"type": "node", "id": 3190977235, "lat": 39.1481711, "lon": -77.2075653, "tags": {"shop": "convenience"}}, {"type": "node", "id": 3413155787, "lat": 38.9452299, "lon": -77.441683, "tags": {"brand": "Hudson", "brand:wikidata": "Q111534515", "check_date": "2023-02-06", "level": "2", "name": "Hudson", "opening_hours": "05:30-22:00", "payment:mastercard": "yes", "payment:visa": "yes", "shop": "convenience", "wheelchair": "yes"}}, {"type": "node", "id": 3413156609, "lat": 38.945445, "lon": -77.4472359, "tags": {"addr:city": "Dulles", "addr:housenumber": "1", "addr:postcode": "20166", "addr:state": "VA", "addr:street": "Saarinen Circle", "addr:unit": "Gate C18", "brand": "Hudson", "brand:wikidata": "Q111534515", "check_date": "2023-02-06", "name": "Hudson", "opening_hours": "05:00-21:30", "payment:mastercard": "yes", "payment:visa": "yes", "shop": "convenience", "wheelchair": "yes"}}, {"type": "node", "id": 3413208655, "lat": 38.9486171, "lon": -77.4462543, "tags": {"brand": "Hudson", "brand:wikidata": "Q111534515", "check_date": "2023-02-06", "level": "2", "name": "Hudson", "opening_hours": "Mo-Tu,Th,Sa 08:00-21:00; We,Fr,Su 07:00-21:00", "payment:mastercard": "yes", "payment:visa": "yes", "shop": "convenience", "wheelchair": "yes"}}, {"type": "node", "id": 3518458460, "lat": 39.1142153, "lon": -77.5395361, "tags": {"brand": "Tiger Mart", "brand:wikidata": "Q57643977", "name": "Tiger Mart", "shop": "convenience"}}, {"type": "node", "id": 3524627404, "lat": 39.1233853, "lon": -77.2335337, "tags": {"addr:city": "Gaithersburg", "addr:housenumber": "121", "addr:postcode": "20878", "addr:state": "MD", "addr:street": "Kentlands Boulevard", "brand": "7-Eleven", "brand:wikidata": "Q259340", "contact:website": "https://www.7-eleven.com/locations/md/gaithersburg/121-kentlands-blv-34560", "name": "7-Eleven", "opening_hours": "24/7", "shop": "convenience"}}, {"type": "node", "id": 3593698637, "lat": 39.1186286, "lon": -77.2555474, "tags": {"shop": "convenience"}}, {"type": "node", "id": 3657955894, "lat": 38.8884282, "lon": -77.1599179}, {"type": "node", "id": 3657955895, "lat": 38.8882988, "lon": -77.1598082}, {"type": "node", "id": 3657955896, "lat": 38.8882321, "lon": -77.1599454}, {"type": "node", "id": 3657955897, "lat": 38.8883602, "lon": -77.1600516}, {"type": "node", "id": 3668609639, "lat": 38.9525804, "lon": -77.2253917, "tags": {"addr:city": "Mclean", "addr:housenumber": "8110", "addr:postcode": "22102-2004", "addr:state": "VA", "addr:street": "Old Dominion Drive", "brand": "7-Eleven", "brand:wikidata": "Q259340", "name": "7-Eleven", "phone": "+1 703-866-8776", "shop": "convenience", "website": "https://www.7-eleven.com/locations/va/mclean/8110-old-dominion-dr-10684"}}, {"type": "node", "id": 3725709355, "lat": 38.9122995, "lon": -77.2222876, "tags": {"shop": "convenience", "source": "Bing"}}, {"type": "node", "id": 3766643169, "lat": 39.0194789, "lon": -77.4695812}, {"type": "node", "id": 3766643170, "lat": 39.0195309, "lon": -77.4694736}, {"type": "node", "id": 3766643171, "lat": 39.0193717, "lon": -77.4693461}, {"type": "node", "id": 3766643172, "lat": 39.0193197, "lon": -77.4694536}, {"type": "node", "id": 3889414304, "lat": 38.9376378, "lon": -77.1750368, "tags": {"addr:city": "Mclean", "addr:housenumber": "1357", "addr:postcode": "22101-3903", "addr:state": "VA", "addr:street": "Chain Bridge Road", "brand": "7-Eleven", "brand:wikidata": "Q259340", "name": "7-Eleven", "operator": "Southland", "phone": "+1 703-883-1710", "shop": "convenience", "website": "https://www.7-eleven.com/locations/va/mclean/1357-chain-bridge-rd-10702"}}, {"type": "node", "id": 3889474937, "lat": 38.9793943, "lon": -77.3483621}, {"type": "node", "id": 3889474940, "lat": 38.9792977, "lon": -77.3484224}, {"type": "node", "id": 3902029690, "lat": 38.9143127, "lon": -77.425864}, {"type": "node", "id": 3902029691, "lat": 38.9142894, "lon": -77.4255357}, {"type": "node", "id": 3902029692, "lat": 38.9141228, "lon": -77.4255553}, {"type": "node", "id": 3902029693, "lat": 38.9141461, "lon": -77.4258836}, {"type": "node", "id": 4051562408, "lat": 39.0358527, "lon": -77.4105906}, {"type": "node", "id": 4065735377, "lat": 38.9638312, "lon": -77.4957748}, {"type": "node", "id": 4065735378, "lat": 38.9638047, "lon": -77.4956207}, {"type": "node", "id": 4065735379, "lat": 38.9635405, "lon": -77.4956952}, {"type": "node", "id": 4065735380, "lat": 38.963567, "lon": -77.4958494}, {"type": "node", "id": 4110573209, "lat": 39.0422048, "lon": -77.4744256}, {"type": "node", "id": 4110573211, "lat": 39.0422095, "lon": -77.4745527}, {"type": "node", "id": 4110573225, "lat": 39.042368, "lon": -77.4744157}, {"type": "node", "id": 4110573227, "lat": 39.0423727, "lon": -77.4745428}, {"type": "node", "id": 4362230689, "lat": 38.9227511, "lon": -77.5060941}, {"type": "node", "id": 4362230690, "lat": 38.9227751, "lon": -77.5059881}, {"type": "node", "id": 4362230691, "lat": 38.9227177, "lon": -77.5058523}, {"type": "node", "id": 4464730731, "lat": 38.871443, "lon": -77.1545379}, {"type": "node", "id": 4511452059, "lat": 39.1810607, "lon": -77.2616496}, {"type": "node", "id": 4511452060, "lat": 39.1810818, "lon": -77.2615985}, {"type": "node", "id": 4511452063, "lat": 39.1799874, "lon": -77.2623121}, {"type": "node", "id": 4511452064, "lat": 39.1809725, "lon": -77.2615236}, {"type": "node", "id": 4511452066, "lat": 39.1809514, "lon": -77.2615748}, {"type": "node", "id": 4511452067, "lat": 39.1800538, "lon": -77.2621394}, {"type": "node", "id": 4563910344, "lat": 39.1072465, "lon": -77.567955, "tags": {"addr:city": "Leesburg", "addr:housenumber": "502", "addr:postcode": "20175-3904", "addr:state": "VA", "addr:street": "South King Street", "brand": "7-Eleven", "brand:wikidata": "Q259340", "name": "7-Eleven", "phone": "+1 703-777-3730", "shop": "convenience", "website": "https://www.7-eleven.com/locations/va/leesburg/502-s-king-st-34507"}}, {"type": "node", "id": 4629976491, "lat": 38.9242222, "lon": -77.5080874}, {"type": "node", "id": 4629976492, "lat": 38.9242433, "lon": -77.5081408}, {"type": "node", "id": 4629976493, "lat": 38.9241236, "lon": -77.508219}, {"type": "node", "id": 4629976494, "lat": 38.9240485, "lon": -77.5080288}, {"type": "node", "id": 4629976495, "lat": 38.9241699, "lon": -77.5079496}, {"type": "node", "id": 4629976496, "lat": 38.9241965, "lon": -77.5080171}, {"type": "node", "id": 4768758140, "lat": 38.9994675, "lon": -77.3443664}, {"type": "node", "id": 4768758151, "lat": 39.0004952, "lon": -77.3438787, "tags": {"shop": "convenience", "source": "Bing"}}, {"type": "node", "id": 4768758188, "lat": 38.9995569, "lon": -77.3445272}, {"type": "node", "id": 4768758330, "lat": 38.9995343, "lon": -77.3443049}, {"type": "node", "id": 4768758342, "lat": 38.9996237, "lon": -77.3444657}, {"type": "node", "id": 4918379252, "lat": 38.8515656, "lon": -77.3718673, "tags": {"check_date": "2023-05-18", "shop": "convenience", "source": "Bing"}}, {"type": "node", "id": 4929602708, "lat": 38.8941159, "lon": -77.2755122}, {"type": "node", "id": 4929602709, "lat": 38.8940421, "lon": -77.2753591}, {"type": "node", "id": 4929602710, "lat": 38.8941344, "lon": -77.2752385}, {"type": "node", "id": 4929602711, "lat": 38.8942324, "lon": -77.2753683}, {"type": "node", "id": 4929602714, "lat": 38.8940383, "lon": -77.275404}, {"type": "node", "id": 4949743955, "lat": 39.1135586, "lon": -77.5612957, "tags": {"addr:city": "Leesburg", "addr:housenumber": "2", "addr:state": "VA", "addr:street": "Harrison Street Southeast", "shop": "convenience"}}, {"type": "node", "id": 4971358281, "lat": 38.9699935, "lon": -77.3404438}, {"type": "node", "id": 4971358286, "lat": 38.9699449, "lon": -77.3403612}, {"type": "node", "id": 4971358292, "lat": 38.9699577, "lon": -77.340368}, {"type": "node", "id": 4971358298, "lat": 38.9699909, "lon": -77.3404154}, {"type": "node", "id": 4971358305, "lat": 38.9698703, "lon": -77.3403865}, {"type": "node", "id": 4971358314, "lat": 38.9698794, "lon": -77.3403723}, {"type": "node", "id": 4971360021, "lat": 38.9698599, "lon": -77.3404175}, {"type": "node", "id": 4971360023, "lat": 38.9698413, "lon": -77.3405147}, {"type": "node", "id": 4971360026, "lat": 38.9699691, "lon": -77.3403769}, {"type": "node", "id": 4971360030, "lat": 38.9698897, "lon": -77.3403627}, {"type": "node", "id": 4971360035, "lat": 38.9699303, "lon": -77.3403574}, {"type": "node", "id": 4971360038, "lat": 38.9699011, "lon": -77.3403571}, {"type": "node", "id": 4971360044, "lat": 38.9698645, "lon": -77.3404013}, {"type": "node", "id": 4971360048, "lat": 38.9699856, "lon": -77.3404014}, {"type": "node", "id": 4971360056, "lat": 38.9699923, "lon": -77.3404595}, {"type": "node", "id": 4971360059, "lat": 38.9699789, "lon": -77.3403878}, {"type": "node", "id": 4971360062, "lat": 38.9699737, "lon": -77.3405567}, {"type": "node", "id": 4971360064, "lat": 38.9699928, "lon": -77.3404305}, {"type": "node", "id": 4971360067, "lat": 38.9699163, "lon": -77.340356}, {"type": "node", "id": 4976361933, "lat": 39.0438008, "lon": -77.5205388, "tags": {"shop": "convenience", "source": "Bing"}}, {"type": "node", "id": 5168207819, "lat": 38.8541993, "lon": -77.222154}, {"type": "node", "id": 5168207820, "lat": 38.8541715, "lon": -77.2221498}, {"type": "node", "id": 5168207921, "lat": 38.8541655, "lon": -77.2222145}, {"type": "node", "id": 5168207922, "lat": 38.8540754, "lon": -77.2222007}, {"type": "node", "id": 5168207923, "lat": 38.854101, "lon": -77.2219247}, {"type": "node", "id": 5168207924, "lat": 38.8541938, "lon": -77.2219389}, {"type": "node", "id": 5168207925, "lat": 38.8542119, "lon": -77.2220174}, {"type": "node", "id": 5168207926, "lat": 38.8541869, "lon": -77.2220136}, {"type": "node", "id": 5249671329, "lat": 38.9227249, "lon": -77.2372306, "tags": {"addr:city": "Vienna", "addr:housenumber": "8391", "addr:postcode": "22182-2402", "addr:state": "VA", "addr:street": "Leesburg Pike", "brand": "7-Eleven", "brand:wikidata": "Q259340", "name": "7-Eleven", "phone": "+1 703-760-0979", "shop": "convenience", "website": "https://www.7-eleven.com/locations/va/vienna/8391-leesburg-pike-28556"}}, {"type": "node", "id": 5271955868, "lat": 38.8858909, "lon": -77.4430201}, {"type": "node", "id": 5271955869, "lat": 38.8859216, "lon": -77.4428609}, {"type": "node", "id": 5271955870, "lat": 38.8857209, "lon": -77.442797}, {"type": "node", "id": 5271955871, "lat": 38.8856902, "lon": -77.4429563}, {"type": "node", "id": 5315098127, "lat": 38.9543103, "lon": -77.3680489, "tags": {"brand": "APlus", "brand:wikidata": "Q4646934", "name": "APlus", "shop": "convenience"}}, {"type": "node", "id": 5353353942, "lat": 39.0491321, "lon": -77.453655}, {"type": "node", "id": 5353353943, "lat": 39.049183, "lon": -77.4535943}, {"type": "node", "id": 5353353944, "lat": 39.0492603, "lon": -77.4536022}, {"type": "node", "id": 5353353945, "lat": 39.0493315, "lon": -77.4537149}, {"type": "node", "id": 5353353946, "lat": 39.0493252, "lon": -77.4538064}, {"type": "node", "id": 5353353947, "lat": 39.0492684, "lon": -77.4538729}, {"type": "node", "id": 5357019923, "lat": 38.8783017, "lon": -77.3964168, "tags": {"addr:city": "Fairfax", "addr:housenumber": "4086", "addr:postcode": "22033-2001", "addr:state": "VA", "addr:street": "Majestic Lane", "brand": "7-Eleven", "brand:wikidata": "Q259340", "name": "7-Eleven", "opening_hours": "24/7", "phone": "+1 703-263-0187", "shop": "convenience", "website": "https://www.7-eleven.com/locations/va/fairfax/4086-majestic-lane-28565"}}, {"type": "node", "id": 5497046438, "lat": 39.0254116, "lon": -77.3951125}, {"type": "node", "id": 5497046439, "lat": 39.0255362, "lon": -77.3950062}, {"type": "node", "id": 5497046440, "lat": 39.0254966, "lon": -77.3949292}, {"type": "node", "id": 5497046441, "lat": 39.0255134, "lon": -77.3949149}, {"type": "node", "id": 5497046442, "lat": 39.0254965, "lon": -77.394882}, {"type": "node", "id": 5497046443, "lat": 39.025355, "lon": -77.3950026}, {"type": "node", "id": 5497046448, "lat": 39.0254986, "lon": -77.3950377}, {"type": "node", "id": 5497046449, "lat": 39.0254587, "lon": -77.3950725}, {"type": "node", "id": 5558422517, "lat": 38.8670781, "lon": -77.2746296}, {"type": "node", "id": 5558422518, "lat": 38.8669947, "lon": -77.2744789}, {"type": "node", "id": 5558422519, "lat": 38.86713, "lon": -77.2743554}, {"type": "node", "id": 5558422520, "lat": 38.8672134, "lon": -77.2745061}, {"type": "node", "id": 5586766047, "lat": 38.8940581, "lon": -77.2753811}, {"type": "node", "id": 5589048715, "lat": 38.8982268, "lon": -77.2688628}, {"type": "node", "id": 5589048716, "lat": 38.8982748, "lon": -77.2687989}, {"type": "node", "id": 5589048717, "lat": 38.8983587, "lon": -77.2689113}, {"type": "node", "id": 5589048718, "lat": 38.8983095, "lon": -77.268973}, {"type": "node", "id": 5589426758, "lat": 38.9066529, "lon": -77.2583015}, {"type": "node", "id": 5589426759, "lat": 38.9066821, "lon": -77.2582646}, {"type": "node", "id": 5924762918, "lat": 38.8867227, "lon": -77.1784847, "tags": {"name": "Penzeys Spices", "shop": "convenience"}}, {"type": "node", "id": 5957453189, "lat": 38.8823305, "lon": -77.178682, "tags": {"addr:city": "Falls Church", "addr:housenumber": "201", "addr:postcode": "22046-2922", "addr:state": "VA", "addr:street": "South Washington Street", "brand": "7-Eleven", "brand:wikidata": "Q259340", "name": "7-Eleven", "phone": "+1 703-538-2854", "shop": "convenience", "website": "https://www.7-eleven.com/locations/va/falls-church/201-s-washington-st-10744"}}, {"type": "node", "id": 6157519256, "lat": 38.8692493, "lon": -77.174244, "tags": {"addr:city": "Falls Church", "addr:state": "VA", "addr:street": "Arlington Boulevard", "brand": "Tiger Mart", "brand:wikidata": "Q57643977", "name": "Tiger Mart", "payment:cash": "yes", "payment:credit_cards": "yes", "shop": "convenience"}}, {"type": "node", "id": 6170155885, "lat": 38.9247112, "lon": -77.4171999, "tags": {"brand": "APlus", "brand:wikidata": "Q4646934", "name": "APlus", "shop": "convenience"}}, {"type": "node", "id": 6222161950, "lat": 39.0472691, "lon": -77.4849723, "tags": {"addr:city": "Ashburn", "addr:housenumber": "20630", "addr:postcode": "20147", "addr:state": "VA", "addr:street": "Ashburn Road", "brand": "7-Eleven", "brand:wikidata": "Q259340", "name": "7-Eleven", "opening_hours": "24/7", "phone": "+1 703-723-3806", "shop": "convenience", "website": "https://www.7-eleven.com/locations/va/ashburn/20630-ashburn-rd-33383"}}, {"type": "node", "id": 6254328535, "lat": 39.0090705, "lon": -77.4170551, "tags": {"addr:city": "Sterling", "addr:housenumber": "21944", "addr:postcode": "20164", "addr:state": "VA", "addr:street": "Cascades Parkway", "brand": "7-Eleven", "brand:wikidata": "Q259340", "name": "7-Eleven", "phone": "+1 703-421-0125", "shop": "convenience", "website": "https://www.7-eleven.com/locations/va/sterling/21944-cascades-pkwy-34694"}}, {"type": "node", "id": 6509779391, "lat": 38.9653817, "lon": -77.446276}, {"type": "node", "id": 6509779392, "lat": 38.9653805, "lon": -77.4460007}, {"type": "node", "id": 6509779393, "lat": 38.9654267, "lon": -77.4460003}, {"type": "node", "id": 6509779394, "lat": 38.9654259, "lon": -77.4457841}, {"type": "node", "id": 6509779395, "lat": 38.9651796, "lon": -77.4457858}, {"type": "node", "id": 6509779396, "lat": 38.9651812, "lon": -77.4461884}, {"type": "node", "id": 6509779397, "lat": 38.9652479, "lon": -77.446188}, {"type": "node", "id": 6509779398, "lat": 38.9652482, "lon": -77.4462769}, {"type": "node", "id": 6591877406, "lat": 38.9782754, "lon": -77.4257776}, {"type": "node", "id": 6591877407, "lat": 38.9780724, "lon": -77.4257796}, {"type": "node", "id": 6591877408, "lat": 38.9780709, "lon": -77.4257058}, {"type": "node", "id": 6591877409, "lat": 38.9780615, "lon": -77.4257061}, {"type": "node", "id": 6591877410, "lat": 38.9780906, "lon": -77.4255287}, {"type": "node", "id": 6591877411, "lat": 38.9781366, "lon": -77.425425}, {"type": "node", "id": 6591877412, "lat": 38.9781372, "lon": -77.4254559}, {"type": "node", "id": 6591877413, "lat": 38.9782563, "lon": -77.4254522}, {"type": "node", "id": 6615144903, "lat": 39.0404436, "lon": -77.4130623}, {"type": "node", "id": 6615144905, "lat": 39.0404644, "lon": -77.4128209}, {"type": "node", "id": 6615144906, "lat": 39.0407967, "lon": -77.4128571}, {"type": "node", "id": 6762735636, "lat": 38.9077773, "lon": -77.4074269, "tags": {"shop": "convenience"}}, {"type": "node", "id": 6814189104, "lat": 39.007365, "lon": -77.4142156}, {"type": "node", "id": 6814189105, "lat": 39.0073432, "lon": -77.4140564}, {"type": "node", "id": 6814189106, "lat": 39.0074028, "lon": -77.4140424}, {"type": "node", "id": 6814189107, "lat": 39.0074111, "lon": -77.4141}, {"type": "node", "id": 6814189108, "lat": 39.0074744, "lon": -77.4140851}, {"type": "node", "id": 6814189109, "lat": 39.0074857, "lon": -77.4141639}, {"type": "node", "id": 6814189110, "lat": 39.007422, "lon": -77.4141789}, {"type": "node", "id": 6814189111, "lat": 39.0074252, "lon": -77.4142014}, {"type": "node", "id": 6994025382, "lat": 39.0320076, "lon": -77.4232493, "tags": {"name": "Street Corner News", "shop": "convenience"}}, {"type": "node", "id": 7130955575, "lat": 39.1465686, "lon": -77.4182351}, {"type": "node", "id": 7130955576, "lat": 39.1465558, "lon": -77.418126}, {"type": "node", "id": 7280512183, "lat": 39.0286958, "lon": -77.5108418, "tags": {"addr:city": "Ashburn", "addr:housenumber": "43101", "addr:postcode": "20148", "addr:state": "VA", "addr:street": "Van Metre Drive", "brand": "Royal Farms", "brand:wikidata": "Q7374169", "name": "Royal Farms", "payment:credit_cards": "yes", "phone": "+1 703-729-5447", "shop": "convenience", "website": "https://www.royalfarms.com/"}}, {"type": "node", "id": 7684169548, "lat": 38.9131324, "lon": -77.486746, "tags": {"brand": "Royal Farms", "brand:wikidata": "Q7374169", "name": "Royal Farms", "shop": "convenience"}}, {"type": "node", "id": 7703795605, "lat": 38.8950474, "lon": -77.2740957, "tags": {"addr:city": "Vienna", "addr:housenumber": "465", "addr:postcode": "22180", "addr:state": "VA", "addr:street": "Maple Avenue West", "brand": "Wawa", "brand:wikidata": "Q5936320", "name": "Wawa", "note": "opens 16th July 2020", "old_name": "Coldwell Banker", "shop": "convenience"}}, {"type": "node", "id": 7703886353, "lat": 38.888736, "lon": -77.2424893, "tags": {"alt_name": "Shell Snack Shop", "name": "Snack Shop", "shop": "convenience", "source": "Mapbox"}}, {"type": "node", "id": 7768164321, "lat": 39.0620969, "lon": -77.4712398}, {"type": "node", "id": 7768164322, "lat": 39.0621719, "lon": -77.4710902}, {"type": "node", "id": 7768164323, "lat": 39.0623459, "lon": -77.4712351}, {"type": "node", "id": 7768164324, "lat": 39.0622708, "lon": -77.4713846}, {"type": "node", "id": 7813252590, "lat": 39.0816232, "lon": -77.4972025, "tags": {"shop": "convenience"}}, {"type": "node", "id": 7835661253, "lat": 39.0506165, "lon": -77.4502489}, {"type": "node", "id": 7835661254, "lat": 39.0506336, "lon": -77.450067}, {"type": "node", "id": 7835661255, "lat": 39.0508712, "lon": -77.4501042}, {"type": "node", "id": 7835661256, "lat": 39.050854, "lon": -77.4502861}, {"type": "node", "id": 7869472279, "lat": 38.9780582, "lon": -77.4255297}, {"type": "node", "id": 7869472280, "lat": 38.9780886, "lon": -77.4254265}, {"type": "node", "id": 7869472281, "lat": 38.978261, "lon": -77.4257023}, {"type": "node", "id": 7869472282, "lat": 38.9782756, "lon": -77.4257019}, {"type": "node", "id": 8297311134, "lat": 38.9372267, "lon": -77.5371674}, {"type": "node", "id": 8297311135, "lat": 38.9371308, "lon": -77.5372302}, {"type": "node", "id": 8297311136, "lat": 38.9370809, "lon": -77.5370911}, {"type": "node", "id": 8297311137, "lat": 38.9371746, "lon": -77.5370316}, {"type": "node", "id": 8515245466, "lat": 39.0649621, "lon": -77.4621956}, {"type": "node", "id": 8515245467, "lat": 39.0648364, "lon": -77.4619268}, {"type": "node", "id": 8515245468, "lat": 39.0649644, "lon": -77.4618232}, {"type": "node", "id": 8515245469, "lat": 39.0650919, "lon": -77.4620844}, {"type": "node", "id": 8518377206, "lat": 38.8792561, "lon": -77.2286385, "tags": {"addr:city": "Vienna", "addr:housenumber": "2730", "addr:postcode": "22180", "addr:state": "VA", "addr:street": "Gallows Road", "name": "The Bodega Neighborhood Market", "opening_hours": "Mo-Sa 08:00-23:00, Su 08:00-22:00", "payment:cash": "yes", "payment:credit_cards": "yes", "shop": "convenience", "website": "https://www.thebodegamarket.com/"}}, {"type": "node", "id": 8627374714, "lat": 39.0359364, "lon": -77.4107515}, {"type": "node", "id": 8627378241, "lat": 39.0361057, "lon": -77.4104891}, {"type": "node", "id": 8627378242, "lat": 39.0358736, "lon": -77.4106306}, {"type": "node", "id": 8636299275, "lat": 39.0502458, "lon": -77.3791618}, {"type": "node", "id": 8636299276, "lat": 39.0502469, "lon": -77.3791518}, {"type": "node", "id": 8636299277, "lat": 39.0503612, "lon": -77.3791721}, {"type": "node", "id": 8636299278, "lat": 39.0503604, "lon": -77.37918}, {"type": "node", "id": 8652614404, "lat": 39.0168349, "lon": -77.3746273}, {"type": "node", "id": 8652615936, "lat": 39.0167887, "lon": -77.3746243}, {"type": "node", "id": 8652615947, "lat": 39.0168505, "lon": -77.3746139}, {"type": "node", "id": 8652615965, "lat": 39.016835, "lon": -77.3745844}, {"type": "node", "id": 8714790147, "lat": 38.9809191, "lon": -77.398854}, {"type": "node", "id": 8714790743, "lat": 38.9807873, "lon": -77.3989073}, {"type": "node", "id": 8714790767, "lat": 38.980921, "lon": -77.3988644}, {"type": "node", "id": 8714791174, "lat": 38.9807849, "lon": -77.3988946}, {"type": "node", "id": 8715328033, "lat": 38.9781189, "lon": -77.4116056}, {"type": "node", "id": 8715328315, "lat": 38.9780551, "lon": -77.4115227}, {"type": "node", "id": 8715328596, "lat": 38.9779862, "lon": -77.4113575}, {"type": "node", "id": 8715328679, "lat": 38.9781162, "lon": -77.4116005}, {"type": "node", "id": 8715328966, "lat": 38.9780257, "lon": -77.4114675}, {"type": "node", "id": 8715329260, "lat": 38.9779839, "lon": -77.4113531}, {"type": "node", "id": 8715329656, "lat": 38.9780972, "lon": -77.4116172}, {"type": "node", "id": 8715329933, "lat": 38.9780193, "lon": -77.4114731}, {"type": "node", "id": 8715330027, "lat": 38.9782552, "lon": -77.4114863}, {"type": "node", "id": 8715330236, "lat": 38.9781204, "lon": -77.4112335}, {"type": "node", "id": 8715330329, "lat": 38.9780495, "lon": -77.4115277}, {"type": "node", "id": 8715330594, "lat": 38.9779667, "lon": -77.4113746}, {"type": "node", "id": 8734543426, "lat": 38.9763295, "lon": -77.4100147}, {"type": "node", "id": 8734543427, "lat": 38.9763359, "lon": -77.410009}, {"type": "node", "id": 8777276814, "lat": 38.9975509, "lon": -77.4055388}, {"type": "node", "id": 8777278167, "lat": 38.9975279, "lon": -77.4055153}, {"type": "node", "id": 8789995868, "lat": 39.0134561, "lon": -77.3704394}, {"type": "node", "id": 8789996062, "lat": 39.0134841, "lon": -77.370692}, {"type": "node", "id": 8789996150, "lat": 39.0133863, "lon": -77.370497}, {"type": "node", "id": 8789996537, "lat": 39.0135539, "lon": -77.3706344}, {"type": "node", "id": 8796463216, "lat": 38.9830786, "lon": -77.5390443}, {"type": "node", "id": 8827397691, "lat": 39.0073553, "lon": -77.4141477}, {"type": "node", "id": 8833659572, "lat": 38.9912539, "lon": -77.4256713}, {"type": "node", "id": 8833659715, "lat": 38.9912973, "lon": -77.4254856}, {"type": "node", "id": 8833659744, "lat": 38.9852799, "lon": -77.4293939}, {"type": "node", "id": 8833659760, "lat": 38.9914401, "lon": -77.4255115}, {"type": "node", "id": 8833659890, "lat": 38.9912602, "lon": -77.4256451}, {"type": "node", "id": 8833659958, "lat": 38.9913171, "lon": -77.4254647}, {"type": "node", "id": 8833660013, "lat": 38.9913036, "lon": -77.4254589}, {"type": "node", "id": 8833660290, "lat": 38.99125, "lon": -77.4256411}, {"type": "node", "id": 8833660312, "lat": 38.9854034, "lon": -77.4292726}, {"type": "node", "id": 8833660452, "lat": 38.9913894, "lon": -77.4257243}, {"type": "node", "id": 8833660578, "lat": 38.9912879, "lon": -77.4254819}, {"type": "node", "id": 8833660595, "lat": 38.9853271, "lon": -77.4294117}, {"type": "node", "id": 8833660738, "lat": 38.9914267, "lon": -77.4255063}, {"type": "node", "id": 8853412167, "lat": 38.9195392, "lon": -77.4957597}, {"type": "node", "id": 8853412168, "lat": 38.9194828, "lon": -77.4957953}, {"type": "node", "id": 8853412169, "lat": 38.919543, "lon": -77.4959514}, {"type": "node", "id": 8853412170, "lat": 38.9193991, "lon": -77.4960422}, {"type": "node", "id": 8853412171, "lat": 38.9193663, "lon": -77.4959592}, {"type": "node", "id": 8853412172, "lat": 38.919371, "lon": -77.4959403}, {"type": "node", "id": 8853412173, "lat": 38.9193567, "lon": -77.4959032}, {"type": "node", "id": 8853412174, "lat": 38.9192972, "lon": -77.4958972}, {"type": "node", "id": 8853412175, "lat": 38.9192914, "lon": -77.4959126}, {"type": "node", "id": 8853412176, "lat": 38.9191774, "lon": -77.4959847}, {"type": "node", "id": 8853412177, "lat": 38.9192646, "lon": -77.4962109}, {"type": "node", "id": 8853412178, "lat": 38.9192498, "lon": -77.4962202}, {"type": "node", "id": 8853412179, "lat": 38.9192655, "lon": -77.496261}, {"type": "node", "id": 8853412180, "lat": 38.9193281, "lon": -77.4962215}, {"type": "node", "id": 8853412181, "lat": 38.919322, "lon": -77.4962057}, {"type": "node", "id": 8853412182, "lat": 38.9193442, "lon": -77.4961916}, {"type": "node", "id": 8853412183, "lat": 38.9194424, "lon": -77.4964459}, {"type": "node", "id": 8853412184, "lat": 38.9196097, "lon": -77.4963402}, {"type": "node", "id": 8853412185, "lat": 38.9195808, "lon": -77.4962653}, {"type": "node", "id": 8853412186, "lat": 38.9194708, "lon": -77.4963349}, {"type": "node", "id": 8853412187, "lat": 38.9194289, "lon": -77.4962264}, {"type": "node", "id": 8853412188, "lat": 38.9194587, "lon": -77.4960956}, {"type": "node", "id": 8853412189, "lat": 38.91957, "lon": -77.4960252}, {"type": "node", "id": 8853412190, "lat": 38.9196486, "lon": -77.4962287}, {"type": "node", "id": 8853412191, "lat": 38.919706, "lon": -77.4961923}, {"type": "node", "id": 8899930022, "lat": 38.9792545, "lon": -77.348308}, {"type": "node", "id": 8899930023, "lat": 38.9793514, "lon": -77.3482485}, {"type": "node", "id": 8917564186, "lat": 39.025833, "lon": -77.4162757}, {"type": "node", "id": 8917564296, "lat": 39.0259254, "lon": -77.4165053}, {"type": "node", "id": 8917564437, "lat": 39.0259063, "lon": -77.4164338}, {"type": "node", "id": 8917564509, "lat": 39.0257888, "lon": -77.4165768}, {"type": "node", "id": 8917564712, "lat": 39.0253001, "lon": -77.4038086}, {"type": "node", "id": 8917564763, "lat": 39.0257408, "lon": -77.4165022}, {"type": "node", "id": 8917564970, "lat": 39.0251364, "lon": -77.4038139}, {"type": "node", "id": 8917565016, "lat": 39.0258401, "lon": -77.4162704}, {"type": "node", "id": 8917565091, "lat": 39.0257697, "lon": -77.416535}, {"type": "node", "id": 8917565126, "lat": 39.0258657, "lon": -77.4165502}, {"type": "node", "id": 8917565272, "lat": 39.0258962, "lon": -77.4164415}, {"type": "node", "id": 8917565344, "lat": 39.0256435, "lon": -77.4162894}, {"type": "node", "id": 8917565611, "lat": 39.0258652, "lon": -77.4163253}, {"type": "node", "id": 8917565716, "lat": 39.0258551, "lon": -77.4165269}, {"type": "node", "id": 8917565820, "lat": 39.0251327, "lon": -77.4036255}, {"type": "node", "id": 8917565891, "lat": 39.0252964, "lon": -77.4036202}, {"type": "node", "id": 8917565945, "lat": 39.0257553, "lon": -77.4165458}, {"type": "node", "id": 8917566213, "lat": 39.0257892, "lon": -77.4161799}, {"type": "node", "id": 8917566472, "lat": 39.0258589, "lon": -77.41633}, {"type": "node", "id": 8917566533, "lat": 39.0257367, "lon": -77.4165052}, {"type": "node", "id": 8933402735, "lat": 39.0113193, "lon": -77.4920355}, {"type": "node", "id": 8933402736, "lat": 39.0113174, "lon": -77.4920457}, {"type": "node", "id": 8933402737, "lat": 39.0112815, "lon": -77.4920352}, {"type": "node", "id": 8933402738, "lat": 39.0112801, "lon": -77.4920429}, {"type": "node", "id": 8933402739, "lat": 39.0112216, "lon": -77.4920258}, {"type": "node", "id": 8933402740, "lat": 39.0112225, "lon": -77.4920204}, {"type": "node", "id": 8933402741, "lat": 39.0111881, "lon": -77.4920104}, {"type": "node", "id": 8933402742, "lat": 39.0111911, "lon": -77.4919934}, {"type": "node", "id": 8954911802, "lat": 39.0179369, "lon": -77.5192514}, {"type": "node", "id": 8954911803, "lat": 39.0179154, "lon": -77.5192829}, {"type": "node", "id": 8954911804, "lat": 39.017903, "lon": -77.5192698}, {"type": "node", "id": 8954911805, "lat": 39.0179292, "lon": -77.5192356}, {"type": "node", "id": 8977395597, "lat": 38.917742, "lon": -77.2200386, "tags": {"addr:city": "Mclean", "addr:housenumber": "1961", "addr:postcode": "22102", "addr:state": "VA", "addr:street": "Chain Bridge Road", "brand": "7-Eleven", "brand:wikidata": "Q259340", "level": "1", "name": "7-Eleven", "phone": "+1 571-455-0583", "shop": "convenience", "website": "https://www.7-eleven.com/locations/va/mclean/1961-chain-bridge-rd-38746"}}, {"type": "node", "id": 9091889682, "lat": 39.0054858, "lon": -77.4315951}, {"type": "node", "id": 9091889683, "lat": 39.0052357, "lon": -77.4315816}, {"type": "node", "id": 9091889684, "lat": 39.0052421, "lon": -77.4313861}, {"type": "node", "id": 9091889685, "lat": 39.0054922, "lon": -77.4313996}, {"type": "node", "id": 9108092673, "lat": 38.9992355, "lon": -77.4007927, "tags": {"brand": "Tiger Mart", "brand:wikidata": "Q57643977", "name": "Tiger Mart", "shop": "convenience"}}, {"type": "node", "id": 9115255605, "lat": 38.9618395, "lon": -77.5446343}, {"type": "node", "id": 9115255606, "lat": 38.9617691, "lon": -77.5444937}, {"type": "node", "id": 9115255607, "lat": 38.9619408, "lon": -77.5443515}, {"type": "node", "id": 9115255608, "lat": 38.9620112, "lon": -77.5444921}, {"type": "node", "id": 9116952730, "lat": 39.025884, "lon": -77.4165365, "tags": {"entrance": "yes"}}, {"type": "node", "id": 9123061512, "lat": 38.9460589, "lon": -77.5202203}, {"type": "node", "id": 9125416693, "lat": 39.0649419, "lon": -77.4621429}, {"type": "node", "id": 9125416694, "lat": 39.0649379, "lon": -77.4621461}, {"type": "node", "id": 9125416695, "lat": 39.0649993, "lon": -77.4621594}, {"type": "node", "id": 9125416696, "lat": 39.0650014, "lon": -77.4621638}, {"type": "node", "id": 9125419723, "lat": 39.1026881, "lon": -77.5249095}, {"type": "node", "id": 9125419724, "lat": 39.1026926, "lon": -77.5249179}, {"type": "node", "id": 9125419725, "lat": 39.1026629, "lon": -77.5249446}, {"type": "node", "id": 9125419726, "lat": 39.102652, "lon": -77.5249244}, {"type": "node", "id": 9125419727, "lat": 39.1026201, "lon": -77.5249532}, {"type": "node", "id": 9125419728, "lat": 39.1025768, "lon": -77.5248734}, {"type": "node", "id": 9125419729, "lat": 39.1025587, "lon": -77.5248897}, {"type": "node", "id": 9125419730, "lat": 39.1025187, "lon": -77.5248161}, {"type": "node", "id": 9125419731, "lat": 39.1026079, "lon": -77.5247357}, {"type": "node", "id": 9125419732, "lat": 39.1026004, "lon": -77.524722}, {"type": "node", "id": 9125419733, "lat": 39.1027493, "lon": -77.5245879}, {"type": "node", "id": 9125419734, "lat": 39.1028455, "lon": -77.5247676}, {"type": "node", "id": 9136234863, "lat": 38.963756, "lon": -77.4956345}, {"type": "node", "id": 9136234864, "lat": 38.9635915, "lon": -77.4956807}, {"type": "node", "id": 9136234865, "lat": 38.9635892, "lon": -77.4956673}, {"type": "node", "id": 9136234866, "lat": 38.9637537, "lon": -77.4956208}, {"type": "node", "id": 9152976833, "lat": 38.946076, "lon": -77.5202209}, {"type": "node", "id": 9152976834, "lat": 38.9460745, "lon": -77.5202854}, {"type": "node", "id": 9152976835, "lat": 38.9460269, "lon": -77.5202836}, {"type": "node", "id": 9152976836, "lat": 38.946024, "lon": -77.5204058}, {"type": "node", "id": 9152976837, "lat": 38.9459785, "lon": -77.5204041}, {"type": "node", "id": 9152976838, "lat": 38.9459797, "lon": -77.5203514}, {"type": "node", "id": 9152976839, "lat": 38.9458627, "lon": -77.5203469}, {"type": "node", "id": 9152976840, "lat": 38.9458685, "lon": -77.5200972}, {"type": "node", "id": 9152976841, "lat": 38.9458547, "lon": -77.5200967}, {"type": "node", "id": 9152976842, "lat": 38.9458565, "lon": -77.5200189}, {"type": "node", "id": 9152976843, "lat": 38.9460542, "lon": -77.5200264}, {"type": "node", "id": 9152976844, "lat": 38.9460522, "lon": -77.5201134}, {"type": "node", "id": 9152976845, "lat": 38.9460614, "lon": -77.5201137}, {"type": "node", "id": 9201265370, "lat": 38.9156751, "lon": -77.2147713, "tags": {"name": "Dolley's", "opening_hours": "Mo-Fr 09:00-20:00; Sa-Su 11:00-18:00", "phone": "+1-571-489-8584", "shop": "convenience", "website": "https://www.dolleysmarket.com/"}}, {"type": "node", "id": 9316349099, "lat": 39.0902869, "lon": -77.5595336}, {"type": "node", "id": 9316349100, "lat": 39.0901723, "lon": -77.5592901}, {"type": "node", "id": 9316349101, "lat": 39.0902758, "lon": -77.5592099}, {"type": "node", "id": 9316349102, "lat": 39.090289, "lon": -77.5592379}, {"type": "node", "id": 9316349103, "lat": 39.0902965, "lon": -77.5592321}, {"type": "node", "id": 9316349104, "lat": 39.0903213, "lon": -77.5592847}, {"type": "node", "id": 9316349105, "lat": 39.0903296, "lon": -77.5592782}, {"type": "node", "id": 9316349106, "lat": 39.0903685, "lon": -77.5593609}, {"type": "node", "id": 9316349107, "lat": 39.0903616, "lon": -77.5593662}, {"type": "node", "id": 9316349108, "lat": 39.0903848, "lon": -77.5594156}, {"type": "node", "id": 9316349109, "lat": 39.0903786, "lon": -77.5594204}, {"type": "node", "id": 9316349110, "lat": 39.0903931, "lon": -77.5594513}, {"type": "node", "id": 9435257094, "lat": 38.9652324, "lon": -77.4460841, "tags": {"addr:city": "Sterling", "addr:housenumber": "44950", "addr:postcode": "20166", "addr:state": "VA", "addr:street": "Rudder Road", "brand": "7-Eleven", "brand:wikidata": "Q259340", "name": "7-Eleven", "opening_hours": "24/7", "phone": "+1 703-661-2164", "shop": "convenience", "website": "https://www.7-eleven.com/locations/va/sterling/44950-rudder-road-40066"}}, {"type": "node", "id": 9442779812, "lat": 38.983083, "lon": -77.5390411}, {"type": "node", "id": 9442779813, "lat": 38.9830509, "lon": -77.5389685}, {"type": "node", "id": 9442779814, "lat": 38.9830465, "lon": -77.5389717}, {"type": "node", "id": 9442779815, "lat": 38.9831108, "lon": -77.5391173}, {"type": "node", "id": 9442779816, "lat": 38.9830135, "lon": -77.538897}, {"type": "node", "id": 9442779817, "lat": 38.9829045, "lon": -77.5389767}, {"type": "node", "id": 9442779818, "lat": 38.9830018, "lon": -77.539197}, {"type": "node", "id": 9482650085, "lat": 38.8883305, "lon": -77.160027}, {"type": "node", "id": 9482650087, "lat": 38.8882786, "lon": -77.159984}, {"type": "node", "id": 9482669215, "lat": 38.8882601, "lon": -77.1598879}, {"type": "node", "id": 9604562057, "lat": 39.0819264, "lon": -77.5633132}, {"type": "node", "id": 9604562058, "lat": 39.0819115, "lon": -77.563134}, {"type": "node", "id": 9604562059, "lat": 39.082153, "lon": -77.5631007}, {"type": "node", "id": 9604562060, "lat": 39.0821679, "lon": -77.5632798}, {"type": "node", "id": 9669439945, "lat": 38.8648625, "lon": -77.2799164}, {"type": "node", "id": 9669439946, "lat": 38.8648407, "lon": -77.2795963}, {"type": "node", "id": 9669439947, "lat": 38.8646574, "lon": -77.2796169}, {"type": "node", "id": 9669439948, "lat": 38.8646792, "lon": -77.279937}, {"type": "node", "id": 9810783332, "lat": 39.102718, "lon": -77.291636, "tags": {"shop": "convenience"}}, {"type": "node", "id": 9810783333, "lat": 39.1030711, "lon": -77.2923887, "tags": {"name": "6 Twelve Food Mart", "shop": "convenience"}}, {"type": "node", "id": 9817472393, "lat": 39.0819181, "lon": -77.5632136}, {"type": "node", "id": 10218324446, "lat": 39.1722646, "lon": -77.2058495, "tags": {"check_date": "2022-11-25", "name": "7 - Eleven", "shop": "convenience"}}, {"type": "node", "id": 10245050374, "lat": 38.879631, "lon": -77.3956731}, {"type": "node", "id": 10299359542, "lat": 38.8947663, "lon": -77.4465412, "tags": {"addr:city": "Chantilly", "addr:housenumber": "14401", "addr:postcode": "20151", "addr:state": "VA", "addr:street": "Chantilly Crossing Lane", "name": "Amity Halal Meat and Grocery", "shop": "convenience"}}, {"type": "node", "id": 10608796819, "lat": 39.0948439, "lon": -77.53271}, {"type": "node", "id": 10646922048, "lat": 38.8867646, "lon": -77.4405914, "tags": {"addr:city": "Chantilly", "addr:housenumber": "4300", "addr:postcode": "20151", "addr:state": "VA", "addr:street": "Chantilly Shopping Center", "addr:unit": "1K", "name": "Prime Mart", "shop": "convenience"}}, {"type": "node", "id": 10742626679, "lat": 39.0949853, "lon": -77.5325451}, {"type": "node", "id": 10742626680, "lat": 39.0948812, "lon": -77.532619}, {"type": "node", "id": 10742626688, "lat": 39.0951359, "lon": -77.5327168}, {"type": "node", "id": 10742626689, "lat": 39.0950623, "lon": -77.5325508}, {"type": "node", "id": 10742626690, "lat": 39.0950062, "lon": -77.5325921}, {"type": "node", "id": 10742626691, "lat": 39.0949697, "lon": -77.53251}, {"type": "node", "id": 10742626692, "lat": 39.0948666, "lon": -77.532586}, {"type": "node", "id": 10742626693, "lat": 39.0949025, "lon": -77.5326669}, {"type": "node", "id": 10742626694, "lat": 39.0949181, "lon": -77.5328773}, {"type": "node", "id": 10857102069, "lat": 39.079747, "lon": -77.3405006}, {"type": "node", "id": 10857102070, "lat": 39.0798896, "lon": -77.3403124}, {"type": "node", "id": 10857102071, "lat": 39.0798422, "lon": -77.3402528}, {"type": "node", "id": 10857102072, "lat": 39.0796996, "lon": -77.340441}, {"type": "node", "id": 10874153896, "lat": 38.9616146, "lon": -77.5443766}, {"type": "node", "id": 10874153897, "lat": 38.9615443, "lon": -77.5442255}, {"type": "node", "id": 10874153898, "lat": 38.9618344, "lon": -77.5440024}, {"type": "node", "id": 10874153899, "lat": 38.9619011, "lon": -77.5441459}, {"type": "node", "id": 10903813073, "lat": 38.8657254, "lon": -77.1981272}, {"type": "node", "id": 10903813074, "lat": 38.8655974, "lon": -77.1981253}, {"type": "node", "id": 10903813075, "lat": 38.8655982, "lon": -77.19804}, {"type": "node", "id": 10903813076, "lat": 38.8657261, "lon": -77.1980419}, {"type": "node", "id": 10990472390, "lat": 38.8622436, "lon": -77.2953578, "tags": {"brand": "7-Eleven", "brand:wikidata": "Q259340", "name": "7-Eleven", "shop": "convenience"}}, {"type": "node", "id": 11014159623, "lat": 38.9571457, "lon": -77.419146, "tags": {"name": "Tensu Market", "shop": "convenience"}}, {"type": "node", "id": 11014159625, "lat": 38.9569045, "lon": -77.4188186, "tags": {"name": "Nazareth Market", "shop": "convenience"}}, {"type": "node", "id": 11045421167, "lat": 38.9040664, "lon": -77.2629535, "tags": {"brand": "Mobil Mart", "brand:wikidata": "Q109676002", "name": "Mobil Mart", "shop": "convenience"}}, {"type": "node", "id": 11161646601, "lat": 38.8889963, "lon": -77.4192662, "tags": {"check_date": "2023-09-01", "name": "Tienda La Confianza", "shop": "convenience"}}, {"type": "node", "id": 11466786778, "lat": 38.8639427, "lon": -77.2769211, "tags": {"brand": "7-Eleven", "brand:wikidata": "Q259340", "name": "7-Eleven", "shop": "convenience"}}, {"type": "node", "id": 11478249818, "lat": 39.1538356, "lon": -77.2152527}, {"type": "node", "id": 11478249819, "lat": 39.1540178, "lon": -77.2150007}, {"type": "node", "id": 11478249820, "lat": 39.1538982, "lon": -77.2148568}, {"type": "node", "id": 11478249821, "lat": 39.1537159, "lon": -77.2151088}, {"type": "node", "id": 11502299081, "lat": 39.1419205, "lon": -77.2216691}, {"type": "node", "id": 11505224578, "lat": 39.1165943, "lon": -77.2059993, "tags": {"brand": "Shell", "brand:wikidata": "Q110716465", "name": "Shell", "shop": "convenience"}}, {"type": "node", "id": 11535634522, "lat": 38.8547718, "lon": -77.5689554, "tags": {"name": "Wi-Not Stop", "shop": "convenience"}}, {"type": "node", "id": 11583820529, "lat": 39.1177248, "lon": -77.1840723, "tags": {"addr:housenumber": "15900", "addr:street": "Shady Grove Road", "brand": "7-Eleven", "brand:wikidata": "Q259340", "name": "7-Eleven", "opening_hours": "24/7", "shop": "convenience"}}, {"type": "node", "id": 11583820533, "lat": 39.1180653, "lon": -77.1841563, "tags": {"addr:housenumber": "15914", "addr:street": "Shady Grove Road", "name": "Orange Latin Market", "name:es": "Orange Mercado Latino", "shop": "convenience"}}, {"type": "node", "id": 11589969858, "lat": 39.1140453, "lon": -77.1869737}, {"type": "way", "id": 44426577, "nodes": [564726030, 564726031, 564726032, 564726028, 564726029, 564726030], "tags": {"addr:city": "Sterling", "addr:housenumber": "46789", "addr:postcode": "20164-1641", "addr:state": "VA", "addr:street": "Sugarland Run Drive", "brand": "7-Eleven", "brand:wikidata": "Q259340", "building": "retail", "name": "7-Eleven", "operator": "7-11", "phone": "+1 703-444-2007", "shop": "convenience", "website": "https://www.7-eleven.com/locations/va/sterling/46789-sugarland-run-dr-30483"}}, {"type": "way", "id": 44546581, "nodes": [565825384, 8636299278, 8636299277, 8636299276, 8636299275, 565825385, 565825386, 565825387, 565825384], "tags": {"addr:city": "Sterling", "addr:housenumber": "46651", "addr:postcode": "20165", "addr:state": "VA", "addr:street": "Algonkian Parkway", "brand": "7-Eleven", "brand:wikidata": "Q259340", "building": "retail", "name": "7-Eleven", "phone": "+1 703-430-4957", "shop": "convenience", "website": "https://www.7-eleven.com/locations/va/sterling/46651-algonkian-pkwy-39644"}}, {"type": "way", "id": 45065833, "nodes": [6615144905, 6615144906, 571446136, 6615144903, 6615144905], "tags": {"addr:city": "Sterling", "addr:housenumber": "113", "addr:postcode": "20165-5684", "addr:state": "VA", "addr:street": "Edds Lane", "brand": "7-Eleven", "brand:wikidata": "Q259340", "building": "yes", "name": "7-Eleven", "name:en": "7-Eleven", "opening_hours": "24/7", "phone": "+1 703-430-1622", "shop": "convenience", "website": "https://www.7-eleven.com/locations/va/sterling/133-c-edds-lane-28543"}}, {"type": "way", "id": 45152053, "nodes": [8652614404, 8652615947, 8652615965, 8652615936, 572815131, 572815128, 572815125, 572815135, 8652614404], "tags": {"addr:city": "Sterling", "addr:housenumber": "46960", "addr:postcode": "20164", "addr:state": "VA", "addr:street": "Leesburg Pike", "brand": "Shell", "brand:wikidata": "Q110716465", "building": "yes", "name": "Shell", "shop": "convenience"}}, {"type": "way", "id": 45153966, "nodes": [572833627, 572833623, 572833619, 572833613, 572833627], "tags": {"brand": "APlus", "brand:wikidata": "Q4646934", "building": "retail", "name": "APlus", "shop": "convenience"}}, {"type": "way", "id": 46973810, "nodes": [599392403, 599392404, 599392405, 599392406, 599392403], "tags": {"addr:city": "Rockville", "addr:housenumber": "16705", "addr:postcode": "20855", "addr:state": "MD", "addr:street": "Crabbs Branch Way", "brand": "Tiger Mart", "brand:wikidata": "Q57643977", "building": "retail", "name": "Tiger Mart", "shop": "convenience"}}, {"type": "way", "id": 48161737, "nodes": [612013603, 612013604, 612013601, 612013602, 8777276814, 8777278167, 612013603], "tags": {"building": "yes", "name": "High Up Food Mart", "shop": "convenience"}}, {"type": "way", "id": 48259894, "nodes": [613255413, 613255418, 613255402, 613255407, 613255413], "tags": {"addr:city": "Sterling", "addr:housenumber": "712", "addr:postcode": "20164-4610", "addr:state": "VA", "addr:street": "West Church Road", "brand": "7-Eleven", "brand:wikidata": "Q259340", "building": "retail", "name": "7-Eleven", "phone": "+1 703-444-1215", "shop": "convenience", "website": "https://www.7-eleven.com/locations/va/sterling/712-w-church-st-10656"}}, {"type": "way", "id": 58741940, "nodes": [727882611, 3115765857, 11502299081, 727882612, 727882613, 727882616, 727882611], "tags": {"addr:city": "Gaithersburg", "addr:housenumber": "600", "addr:postcode": "20878", "addr:state": "MD", "addr:street": "Quince Orchard Road", "brand": "Shell", "brand:wikidata": "Q110716465", "building": "yes", "name": "Shell", "self_service": "yes", "shop": "convenience", "source": "Bing 2011", "source:address": "sales receipt"}}, {"type": "way", "id": 63939783, "nodes": [7130955576, 789297625, 789297452, 7130955575, 7130955576], "tags": {"building": "retail", "name": "Poolesville Liberty", "shop": "convenience"}}, {"type": "way", "id": 64142368, "nodes": [4511452063, 790661503, 790661345, 4511452067, 4511452063], "tags": {"addr:housenumber": "19786", "addr:street": "Crystal Rock Drive", "brand": "7-Eleven", "brand:wikidata": "Q259340", "building": "retail", "contact:website": "https://www.7-eleven.com/locations/md/germantown/19786-crystal-rock-drive-27669", "name": "7-Eleven", "shop": "convenience"}}, {"type": "way", "id": 66965253, "nodes": [8714790147, 8714791174, 8714790743, 808797281, 808797131, 808797973, 808797804, 8714790767, 8714790147], "tags": {"addr:city": "Herndon", "addr:housenumber": "1115", "addr:postcode": "20170-3540", "addr:state": "VA", "addr:street": "Crestview Drive", "brand": "7-Eleven", "brand:wikidata": "Q259340", "building": "retail", "name": "7-Eleven", "phone": "+1 703-689-3604", "shop": "convenience", "website": "https://www.7-eleven.com/locations/va/herndon/1115-crestview-dr-20354"}}, {"type": "way", "id": 72596045, "nodes": [4464730731, 861622584, 861622904, 861622197, 4464730731], "tags": {"addr:city": "Falls Church", "addr:housenumber": "6318", "addr:postcode": "22044", "addr:state": "VA", "addr:street": "Leesburg Pike", "brand": "Mobil Mart", "brand:wikidata": "Q109676002", "building": "yes", "contact:facebook": "https://www.facebook.com/Euro-Market-Mobil-1464446327169192/info/?tab=page_info", "name": "Mobil Mart", "opening_hours": "Su 06:00-24:00; Mo-Sa 05:00-24:00", "operator": "Euro Market", "payment:american_express": "yes", "payment:cash": "yes", "payment:discover_card": "yes", "payment:mastercard": "yes", "payment:visa": "yes", "shop": "convenience", "website": "http://euromarketva.com/"}}, {"type": "way", "id": 85317331, "nodes": [989094965, 989094969, 989094932, 989094959, 989094965], "tags": {"addr:city": "Dunn Loring", "addr:housenumber": "2242", "addr:postcode": "22027-1136", "addr:state": "VA", "addr:street": "Gallows Road", "brand": "7-Eleven", "brand:wikidata": "Q259340", "building": "retail", "name": "7-Eleven", "phone": "+1 703-876-8927", "shop": "convenience", "website": "https://www.7-eleven.com/locations/va/dunn-loring/2242-gallows-rd-10697"}}, {"type": "way", "id": 100401071, "nodes": [1160603332, 1160603333, 1160603334, 1160603336, 1160603332], "tags": {"addr:housenumber": "21004", "addr:postcode": "20876", "addr:street": "Frederick Road", "building": "retail", "shop": "convenience"}}, {"type": "way", "id": 117088764, "nodes": [1319005191, 1319005183, 1319005175, 577271827, 1319005187, 1319005188, 1319005198, 1319005219, 1319005191], "tags": {"building": "yes", "name": "Frying Pan Country Store", "shop": "convenience"}}, {"type": "way", "id": 134236995, "nodes": [1476620399, 1476620443, 1476620136, 1476620127, 1476620399], "tags": {"brand": "Shell", "brand:wikidata": "Q110716465", "building": "retail", "name": "Shell", "shop": "convenience"}}, {"type": "way", "id": 143500254, "nodes": [1570255257, 1570255332, 1570255255, 1570255278, 1570255257], "tags": {"addr:city": "Herndon", "addr:housename": "Sunoco", "addr:housenumber": "13470", "addr:postcode": "20171", "addr:state": "VA", "addr:street": "Coppermine Road", "brand": "Sunoco", "brand:wikidata": "Q1423218", "building": "retail", "name": "Sunoco", "opening_hours": "24/7", "phone": "+1-571-643-0050", "shop": "convenience"}}, {"type": "way", "id": 152164979, "nodes": [1649873000, 1649873002, 1649872997, 1649873004, 1649873000], "tags": {"addr:city": "Herndon", "addr:housenumber": "13190", "addr:postcode": "20170-4332", "addr:state": "VA", "addr:street": "Parcher Avenue", "brand": "7-Eleven", "brand:wikidata": "Q259340", "building": "retail", "name": "7-Eleven", "opening_hours": "24/7", "phone": "+1 703-689-3602", "shop": "convenience", "website": "https://www.7-eleven.com/locations/va/herndon/13190-parcher-ave-16091"}}, {"type": "way", "id": 152426437, "nodes": [1652434593, 1652434589, 1652434592, 1652434602, 1652434593], "tags": {"addr:city": "Fairfax", "addr:housenumber": "3560", "addr:postcode": "22030", "addr:state": "VA", "addr:street": "Chain Bridge Road", "brand": "Tiger Mart", "brand:wikidata": "Q57643977", "building": "retail", "building:levels": "1", "name": "Tiger Mart", "shop": "convenience"}}, {"type": "way", "id": 152426438, "nodes": [1652434573, 1837143401, 1837143399, 1652434563, 1652434556, 1652434562, 1652434573], "tags": {"addr:city": "Fairfax", "addr:postcode": "22030", "addr:state": "VA", "addr:street": "Fairfax Boulevard", "brand": "On the Run", "brand:wikidata": "Q16931259", "building": "retail", "building:levels": "1", "name": "On the Run", "shop": "convenience", "source": "Bing"}}, {"type": "way", "id": 152579160, "nodes": [1653846161, 1653846145, 1653846198, 1653846143, 1653846161], "tags": {"addr:city": "Herndon", "addr:housenumber": "1111", "addr:postcode": "20170-5502", "addr:state": "VA", "addr:street": "Elden Street", "brand": "7-Eleven", "brand:wikidata": "Q259340", "building": "yes", "name": "7-Eleven", "phone": "+1 703-689-3601", "shop": "convenience", "website": "https://www.7-eleven.com/locations/va/herndon/1111-s-elden-st-10657"}}, {"type": "way", "id": 152579163, "nodes": [1653846182, 1653846199, 1653846201, 1653846196, 1653846182], "tags": {"building": "yes", "shop": "convenience"}}, {"type": "way", "id": 152579169, "nodes": [1653846212, 1653846179, 1653846192, 1653846180, 1653846212], "tags": {"addr:city": "Herndon", "addr:housenumber": "701", "addr:postcode": "20170-4722", "addr:state": "VA", "addr:street": "Van Buren Street", "brand": "7-Eleven", "brand:wikidata": "Q259340", "building": "yes", "name": "7-Eleven", "phone": "+1 571-203-9618", "shop": "convenience", "website": "https://www.7-eleven.com/locations/va/herndon/701-vanburen-st-10653"}}, {"type": "way", "id": 152747266, "nodes": [523973700, 1655289235, 1655289234, 1655289236, 2622920236, 2622920242, 523973700], "tags": {"addr:city": "Chantilly", "addr:housenumber": "13990", "addr:postcode": "20151", "addr:state": "VA", "addr:street": "Metrotech Drive", "brand": "7-Eleven", "brand:wikidata": "Q259340", "building": "yes", "check_date": "2023-09-02", "name": "7-Eleven", "opening_hours": "24/7", "phone": "+1 703-378-1362", "shop": "convenience", "website": "https://www.7-eleven.com/locations/va/chantilly/13990-metrotech-dr-32394"}}, {"type": "way", "id": 152767259, "nodes": [1655504881, 1655504888, 1655504901, 1655504885, 1655504881], "tags": {"addr:housenumber": "10810", "addr:postcode": "22030", "addr:street": "Fairchester Drive", "brand": "7-Eleven", "brand:wikidata": "Q259340", "building": "yes", "contact:website": "https://www.7-eleven.com/locations/va/fairfax/10810-fairchester-dr-10668", "name": "7-Eleven", "shop": "convenience"}}, {"type": "way", "id": 155920441, "nodes": [1682610232, 5589426759, 5589426758, 1682610228, 1682610227, 1682610231, 1682610232], "tags": {"brand": "Tiger Mart", "brand:wikidata": "Q57643977", "building": "retail", "name": "Tiger Mart", "operator": "Exxon", "shop": "convenience"}}, {"type": "way", "id": 156468472, "nodes": [1687184425, 1687184408, 1687184406, 1687184410, 1687184425], "tags": {"building": "retail", "shop": "convenience", "source": "bing"}}, {"type": "way", "id": 167014017, "nodes": [1707818681, 1784091654, 1784091658, 1784091656, 1707818681], "tags": {"addr:city": "Leesburg", "addr:housenumber": "22", "addr:postcode": "20176-3205", "addr:state": "VA", "addr:street": "Plaza Street Northeast", "brand": "7-Eleven", "brand:wikidata": "Q259340", "building": "yes", "name": "7-Eleven", "phone": "+1 703-777-6819", "shop": "convenience", "website": "https://www.7-eleven.com/locations/va/leesburg/22-plaza-st-15103"}}, {"type": "way", "id": 167180485, "nodes": [1785891902, 1785891915, 1785891903, 1785891896, 1785891902], "tags": {"addr:city": "Germantown", "addr:housenumber": "19412", "addr:postcode": "20874", "addr:street": "Bowman Mill Drive", "brand": "7-Eleven", "brand:wikidata": "Q259340", "building": "yes", "contact:website": "https://www.7-eleven.com/locations/md/germantown/19412-walter-johnson-rd-32967", "name": "7-Eleven", "shop": "convenience"}}, {"type": "way", "id": 167520492, "nodes": [1789086721, 1789086725, 1789086731, 1789086726, 1789086711, 1789086714, 1789086721], "tags": {"addr:city": "Germantown", "addr:housenumber": "12861", "addr:postcode": "20874", "addr:state": "MD", "addr:street": "Clopper Road", "brand": "7-Eleven", "brand:wikidata": "Q259340", "building": "retail", "contact:website": "https://www.7-eleven.com/locations/md/germantown/12861-clopper-rd-32882", "name": "7-Eleven", "shop": "convenience"}}, {"type": "way", "id": 168118854, "nodes": [1794294016, 1794294020, 1794294018, 1794294013, 1794294016], "tags": {"addr:housenumber": "12901", "addr:street": "Wisteria Drive", "building": "retail", "shop": "convenience"}}, {"type": "way", "id": 170164979, "nodes": [2134387517, 1813193910, 1813193908, 1813193898, 1813193904, 2134387517], "tags": {"addr:housenumber": "12140", "addr:street": "Darnestown Road", "building": "retail", "shop": "convenience"}}, {"type": "way", "id": 171848922, "nodes": [1828203714, 1828203700, 1828203719, 1828203720, 1828203708, 1828203714], "tags": {"building": "retail", "shop": "convenience", "source": "bing"}}, {"type": "way", "id": 171867167, "nodes": [1828354968, 11589969858, 1828354970, 2136239025, 1828354966, 1828354968], "tags": {"addr:housenumber": "15730", "addr:street": "Shady Grove Road", "brand": "Shell", "brand:wikidata": "Q110716465", "building": "yes", "name": "Shell", "shop": "convenience"}}, {"type": "way", "id": 180642714, "nodes": [1910893401, 1910893512, 1910893426, 1910893545, 1910893401], "tags": {"brand": "Sunoco", "brand:wikidata": "Q1423218", "building": "commercial", "name": "Sunoco", "shop": "convenience"}}, {"type": "way", "id": 183444462, "nodes": [1938132809, 1938132798, 1938132795, 1938132803, 1938132809], "tags": {"addr:housenumber": "984", "addr:postcode": "20176", "addr:street": "Edwards Ferry Road Northeast", "building": "yes", "name": "Shenandoah Exxon", "shop": "convenience"}}, {"type": "way", "id": 196408313, "nodes": [2067521702, 2067521719, 2067521803, 2067521722, 2067521753, 2067521773, 2067521702], "tags": {"brand": "Tiger Mart", "brand:wikidata": "Q57643977", "building": "retail", "name": "Tiger Mart", "shop": "convenience", "source": "Bing"}}, {"type": "way", "id": 196408329, "nodes": [2067521862, 2067521706, 2067521791, 2067521856, 2067521862], "tags": {"building": "retail", "shop": "convenience", "source": "Bing"}}, {"type": "way", "id": 196616203, "nodes": [2069273047, 2069273019, 2880912509, 2069273041, 2069273034, 2880912534, 2069273047], "tags": {"addr:city": "Ashburn", "addr:housenumber": "20065", "addr:postcode": "20147", "addr:state": "VA", "addr:street": "Ashbrook Commons Plaza", "amenity": "fuel", "brand": "BP", "brand:wikidata": "Q152057", "building": "roof", "building:levels": "1", "car_wash": "yes", "compressed_air": "yes", "height": "5", "name": "BP", "opening_hours": "24/7", "operator": "BP", "phone": "+1 703-726-9939", "roof:shape": "flat", "self_service": "yes", "shop": "convenience", "toilets": "yes"}}, {"type": "way", "id": 196616207, "nodes": [2069273003, 2069273022, 2069272981, 2069273044, 2069273003], "tags": {"addr:housenumber": "20065", "addr:postcode": "20147", "addr:street": "Ashbrook Commons Plaza", "atm": "yes", "building": "retail", "building:levels": "1", "internet_access": "yes", "shop": "convenience", "toilets": "yes"}}, {"type": "way", "id": 207368327, "nodes": [2175867165, 2175867247, 2175867219, 2175867139, 2175867165], "tags": {"addr:city": "Falls Church", "addr:housenumber": "804", "addr:postcode": "22046-4019", "addr:state": "VA", "addr:street": "South Washington Street", "brand": "7-Eleven", "brand:wikidata": "Q259340", "building": "yes", "building:levels": "1", "name": "7-Eleven", "phone": "+1 703-538-2852", "shop": "convenience", "source": "survey;local knowledge", "website": "https://www.7-eleven.com/locations/va/falls-church/804-s-washington-st-15843"}}, {"type": "way", "id": 207779313, "nodes": [2180325050, 2180325052, 2180325056, 2180325053, 2180325050], "tags": {"addr:housenumber": "1200", "addr:postcode": "22046", "addr:street": "West Broad Street", "building": "yes", "shop": "convenience"}}, {"type": "way", "id": 207826339, "nodes": [2180777804, 2180777807, 2180777806, 2180777809, 2180777802, 2180777800, 2180777799, 2180777797, 2180777804], "tags": {"addr:city": "Falls Church", "addr:housenumber": "3019", "addr:postcode": "22042", "addr:state": "VA", "addr:street": "Annandale Road", "brand": "7-Eleven", "brand:wikidata": "Q259340", "building": "yes", "building:levels": "1", "name": "7-Eleven", "phone": "+1 703-538-2858", "shop": "convenience", "website": "https://www.7-eleven.com/locations/va/falls-church/3019-annandale-10677"}}, {"type": "way", "id": 226934308, "nodes": [1784144555, 1784144550, 1784144564, 1784144631, 1784144555], "tags": {"addr:city": "Leesburg", "addr:housenumber": "915", "addr:postcode": "20176", "addr:state": "VA", "addr:street": "Edwards Ferry Road Northeast", "brand": "Sheetz", "brand:wikidata": "Q7492551", "building": "yes", "name": "Sheetz", "shop": "convenience", "source": "survey"}}, {"type": "way", "id": 228641819, "nodes": [2373011049, 2373011240, 10245050374, 2373011257, 2373010695, 2373011049], "tags": {"brand": "Shell", "brand:wikidata": "Q110716465", "building": "retail", "name": "Shell", "shop": "convenience", "source": "Bing"}}, {"type": "way", "id": 236145346, "nodes": [2442048614, 2442048634, 2442048623, 2442048615, 2442048614], "tags": {"addr:city": "Ashburn", "addr:housenumber": "43974", "addr:postcode": "20147", "addr:state": "VA", "addr:street": "Pipeline Plaza", "brand": "7-Eleven", "brand:wikidata": "Q259340", "building": "retail", "name": "7-Eleven", "shop": "convenience"}}, {"type": "way", "id": 236148036, "nodes": [702034324, 2442094727, 2442094722, 2442094720, 702034324], "tags": {"addr:housenumber": "3965", "addr:postcode": "22030", "addr:state": "VA", "addr:street": "Jermantown Road", "brand": "7-Eleven", "brand:wikidata": "Q259340", "building": "retail", "contact:website": "https://www.7-eleven.com/locations/va/fairfax/3965-jermantown-rd-10658", "name": "7-Eleven", "shop": "convenience"}}, {"type": "way", "id": 239269532, "nodes": [2470689470, 2711463207, 2470689474, 2470689476, 2470689470], "tags": {"addr:housenumber": "6717", "addr:state": "VA", "addr:street": "Old Dominion Drive", "brand": "Shell", "brand:wikidata": "Q110716465", "building": "commercial", "name": "Shell", "shop": "convenience"}}, {"type": "way", "id": 239269534, "nodes": [2470689485, 2470689487, 2470689489, 2470689491, 2470689493, 2470689494, 2470689485], "tags": {"addr:city": "Mclean", "addr:housenumber": "6720", "addr:postcode": "22101", "addr:state": "VA", "addr:street": "Old Dominion Drive", "brand": "7-Eleven", "brand:wikidata": "Q259340", "building": "retail", "name": "7-Eleven", "phone": "+1 703-356-1133", "shop": "convenience", "website": "https://www.7-eleven.com/locations/va/mclean/6720-old-dominion-dr-34640"}}, {"type": "way", "id": 261010113, "nodes": [2666204128, 2666204130, 2666204137, 2666204127, 2666204128], "tags": {"addr:housenumber": "13704", "addr:postcode": "20151", "addr:state": "VA", "addr:street": "Route 50", "building": "yes", "shop": "convenience"}}, {"type": "way", "id": 262058753, "nodes": [2677033403, 2677033438, 2677033441, 2677033440, 2677033473, 2677033434, 2677033416, 2677033409, 2677033403], "tags": {"addr:city": "Herndon", "addr:housenumber": "3043", "addr:postcode": "20171", "addr:state": "VA", "addr:street": "Centreville Road", "brand": "Shell", "brand:wikidata": "Q110716465", "building": "yes", "name": "Shell", "phone": "+1 703-318-7744", "shop": "convenience"}}, {"type": "way", "id": 270990317, "nodes": [2759404488, 4362230689, 4362230690, 4362230691, 2759404498, 2759404490, 2759404488], "tags": {"addr:city": "South Riding", "addr:housenumber": "43270", "addr:postcode": "20152", "addr:state": "VA", "addr:street": "Defender Drive", "brand": "7-Eleven", "brand:wikidata": "Q259340", "building": "yes", "name": "7-Eleven", "phone": "+1 703-327-0021", "shop": "convenience", "website": "https://www.7-eleven.com/locations/va/south-riding/43270-defender-drive-40103"}}, {"type": "way", "id": 273896088, "nodes": [2786960009, 2786960002, 8833659744, 8833660595, 8833660312, 2786959987, 2786959997, 2786960009], "tags": {"brand": "Shell", "brand:wikidata": "Q110716465", "building": "yes", "name": "Shell", "shop": "convenience"}}, {"type": "way", "id": 283787732, "nodes": [2862169946, 2876113694, 2876113695, 2862169947, 2862169946], "tags": {"addr:city": "Falls Church", "addr:housenumber": "7243", "addr:state": "VA", "addr:street": "Arlington Boulevard", "brand": "7-Eleven", "brand:wikidata": "Q259340", "building": "yes", "name": "7-Eleven", "shop": "convenience"}}, {"type": "way", "id": 300961110, "nodes": [8954911805, 8954911804, 8954911803, 3050696471, 3050696466, 3050696467, 3050696468, 3050696469, 3050696470, 8954911802, 8954911805], "tags": {"building": "retail", "shop": "convenience"}}, {"type": "way", "id": 300964402, "nodes": [3050730504, 3050730503, 3050730502, 8933402742, 8933402741, 8933402740, 8933402739, 8933402738, 8933402737, 8933402736, 8933402735, 3054657633, 3050730504], "tags": {"addr:housenumber": "21880", "addr:state": "VA", "addr:street": "Ryan Center Way", "brand": "Circle K", "brand:wikidata": "Q3268010", "building": "yes", "name": "Circle K", "shop": "convenience", "wheelchair": "yes"}}, {"type": "way", "id": 301103348, "nodes": [2685242823, 3052116295, 3052116296, 3052116297, 2685242823], "tags": {"addr:housenumber": "42040", "addr:postcode": "20105", "addr:state": "VA", "addr:street": "Village Center Plaza", "brand": "7-Eleven", "brand:wikidata": "Q259340", "building": "yes", "fuel:diesel": "yes", "name": "7-Eleven", "phone": "+1 703-327-6519", "shop": "convenience", "website": "https://www.7-eleven.com/locations/va/aldie/42040-village-ctr-plaza-33651"}}, {"type": "way", "id": 301873104, "nodes": [3060398799, 3060398789, 3060398783, 3060398744, 3060398758, 3060398742, 3060398799], "tags": {"addr:housenumber": "43740", "addr:street": "Parkhurst Plaza", "atm": "yes", "brand": "APlus", "brand:wikidata": "Q4646934", "building": "yes", "name": "APlus", "shop": "convenience", "toilets": "yes"}}, {"type": "way", "id": 305620502, "nodes": [613234396, 3102680428, 3102680426, 3102680427, 613234396], "tags": {"addr:city": "McLean", "addr:housenumber": "1423", "addr:postcode": "22101", "addr:state": "VA", "addr:street": "Chain Bridge Road", "amenity": "fuel", "brand": "BP", "brand:wikidata": "Q152057", "building": "retail", "name": "BP", "opening_hours": "24/7", "phone": "+1 703-821-1089", "shop": "convenience"}}, {"type": "way", "id": 361299763, "nodes": [3657955894, 3657955895, 9482669215, 3657955896, 9482650087, 9482650085, 3657955897, 3657955894], "tags": {"addr:city": "Arlington", "addr:housenumber": "6730", "addr:postcode": "22205", "addr:state": "VA", "addr:street": "Langston Boulevard", "brand": "7-Eleven", "brand:wikidata": "Q259340", "building": "retail", "name": "7-Eleven", "opening_hours": "24/7", "operator": "Exxon Mobil", "phone": "+1 703-241-5505", "shop": "convenience", "website": "https://www.7-eleven.com/locations/va/arlington/6730-lee-hwy-34642", "wheelchair": "yes"}}, {"type": "way", "id": 373151547, "nodes": [3766643169, 3766643170, 3766643171, 3766643172, 3766643169], "tags": {"building": "retail", "shop": "convenience"}}, {"type": "way", "id": 374780718, "nodes": [1784091657, 1784091649, 1784091651, 1784091652, 1784091659, 1784091648, 1784091657], "tags": {"building": "yes", "shop": "convenience"}}, {"type": "way", "id": 386846839, "nodes": [3902029690, 3902029691, 3902029692, 3902029693, 3902029690], "tags": {"addr:city": "Chantilly", "addr:housenumber": "3450", "addr:postcode": "20151", "addr:state": "VA", "addr:street": "Historic Sully Way", "branch": "Store #8639", "brand": "Wawa", "brand:wikidata": "Q5936320", "building": "yes", "description": "24-hour convenience store, limited food menu. Gas (Regular, Plus, Premium, Diesel)", "name": "Wawa", "opening_hours": "24/7", "phone": "+1 703-689-8917", "shop": "convenience", "website": "https://www.wawa.com/store/8639/ma/va-chantilly-3450-historic-sully-way"}}, {"type": "way", "id": 402748363, "nodes": [8627374714, 565841329, 8627378241, 565841324, 4051562408, 8627378242, 8627374714], "tags": {"addr:housenumber": "20955", "addr:postcode": "20165-6131", "addr:state": "VA", "addr:street": "Davenport Drive", "brand": "7-Eleven", "brand:wikidata": "Q259340", "building": "yes", "name": "7-Eleven", "phone": "+1 703-430-1089", "shop": "convenience", "website": "https://www.7-eleven.com/locations/va/sterling/20955-davenport-drive-27740"}}, {"type": "way", "id": 404299981, "nodes": [9136234866, 9136234865, 9136234864, 4065735379, 4065735380, 4065735377, 4065735378, 9136234863, 9136234866], "tags": {"addr:housenumber": "23501", "addr:street": "Overland Drive", "brand": "7-Eleven", "brand:wikidata": "Q259340", "building": "yes", "name": "7-Eleven", "shop": "convenience"}}, {"type": "way", "id": 409161867, "nodes": [4110573227, 4110573225, 4110573209, 4110573211, 4110573227], "tags": {"addr:city": "Ashburn", "addr:housenumber": "44111", "addr:postcode": "20147", "addr:state": "VA", "addr:street": "Ashburn Shopping Plaza", "amenity": "fuel", "brand": "Sunoco", "brand:wikidata": "Q1423218", "building": "roof", "name": "Sunoco", "phone": "+1 703-729-9833", "shop": "convenience", "website": "https://www.sunoco.com/locations/va/44111-ashburn-shopping-plaza-ashburn-va-20147/"}}, {"type": "way", "id": 454599996, "nodes": [4511452064, 4511452060, 4511452059, 4511452066, 4511452064], "tags": {"addr:city": "Germantown", "addr:housenumber": "19815", "addr:postcode": "20874", "addr:state": "MD", "addr:street": "Crystal Rock Drive", "brand": "Circle K", "brand:wikidata": "Q3268010", "building": "retail", "name": "Circle K", "shop": "convenience"}}, {"type": "way", "id": 484140986, "nodes": [4768758342, 4768758188, 4768758140, 4768758330, 4768758342], "tags": {"building": "retail", "shop": "convenience", "source": "Bing"}}, {"type": "way", "id": 502496939, "nodes": [4929602708, 4929602714, 5586766047, 4929602709, 4929602710, 4929602711, 4929602708], "tags": {"addr:city": "Vienna", "addr:housenumber": "537", "addr:postcode": "22180-4226", "addr:state": "VA", "addr:street": "Maple Avenue West", "brand": "7-Eleven", "brand:wikidata": "Q259340", "building": "yes", "name": "7-Eleven", "phone": "+1 703-255-9301", "shop": "convenience", "website": "https://www.7-eleven.com/locations/va/vienna/537-maple-av-10645"}}, {"type": "way", "id": 502528654, "nodes": [1709092827, 1709092824, 8734543427, 8734543426, 1709092836, 1709092791, 1709092829, 1709092832, 1709092827], "tags": {"addr:city": "Sterling", "addr:housenumber": "23131", "addr:postcode": "20166", "addr:state": "VA", "addr:street": "Rock Hill Road", "brand": "7-Eleven", "brand:wikidata": "Q259340", "building": "retail", "name": "7-Eleven", "phone": "+1 703-437-0104", "shop": "convenience", "website": "https://www.7-eleven.com/locations/va/sterling/23131-rock-hill-road-32284"}}, {"type": "way", "id": 507675430, "nodes": [4971360062, 4971360023, 4971360021, 4971360044, 4971358305, 4971358314, 4971360030, 4971360038, 4971360067, 4971360035, 4971358286, 4971358292, 4971360026, 4971360059, 4971360048, 4971358298, 4971360064, 4971358281, 4971360056, 4971360062], "tags": {"addr:city": "Reston", "addr:housenumber": "1645", "addr:postcode": "20190", "addr:state": "VA", "addr:street": "Washington Plaza North", "building": "retail", "building:levels": "1", "name": "La Miguelena Market", "old_name": "Lake Anne Market & Deli", "phone": "+1 703-435-0532", "shop": "convenience", "source": "Bing"}}, {"type": "way", "id": 532623348, "nodes": [5168207819, 5168207820, 5168207921, 5168207922, 5168207923, 5168207924, 5168207926, 5168207925, 5168207819], "tags": {"addr:city": "Annandale", "addr:housenumber": "3405", "addr:postcode": "22003-1201", "addr:state": "VA", "addr:street": "Holly Road", "brand": "7-Eleven", "brand:wikidata": "Q259340", "building": "yes", "name": "7-Eleven", "phone": "+1 703-876-8923", "shop": "convenience", "website": "https://www.7-eleven.com/locations/va/annandale/3338-gallows-rd-10689"}}, {"type": "way", "id": 545474608, "nodes": [5271955868, 5271955869, 5271955870, 5271955871, 5271955868], "tags": {"addr:housenumber": "4475", "addr:postcode": "20151", "addr:street": "Chantilly Shopping Center", "brand": "APlus", "brand:wikidata": "Q4646934", "building": "yes", "name": "APlus", "shop": "convenience"}}, {"type": "way", "id": 554733755, "nodes": [5353353947, 5353353946, 5353353945, 5353353944, 5353353943, 5353353942, 5353353947], "tags": {"addr:housenumber": "44680", "addr:state": "VA", "addr:street": "Wellfleet Drive", "atm": "yes", "brand": "Circle K", "brand:wikidata": "Q3268010", "building": "retail", "building:levels": "1", "name": "Circle K", "opening_hours": "24/7", "phone": "+1 703-724-1890", "shop": "convenience", "toilets": "yes", "website": "https://www.circlek.com/store-locator/US/ashburn/44680-wellfleet-dr/2655615?location=Ashburn,%20VA%2020147,%20United%20States"}}, {"type": "way", "id": 572131049, "nodes": [5497046438, 5497046449, 5497046448, 5497046439, 5497046440, 5497046441, 5497046442, 5497046443, 5497046438], "tags": {"addr:housenumber": "46373", "addr:street": "Bartholomew Fair Drive", "brand": "Tiger Mart", "brand:wikidata": "Q57643977", "building": "yes", "name": "Tiger Mart", "shop": "convenience"}}, {"type": "way", "id": 580728650, "nodes": [5558422517, 5558422518, 5558422519, 5558422520, 5558422517], "tags": {"addr:city": "Fairfax", "addr:housenumber": "9511", "addr:postcode": "22031-1701", "addr:state": "VA", "addr:street": "Blake Lane", "brand": "7-Eleven", "brand:wikidata": "Q259340", "building": "retail", "name": "7-Eleven", "phone": "+1 703-359-3566", "shop": "convenience", "website": "https://www.7-eleven.com/locations/va/fairfax/9511-blake-ln-10672"}}, {"type": "way", "id": 584752864, "nodes": [5589048715, 5589048716, 5589048717, 5589048718, 5589048715], "tags": {"brand": "Shell", "brand:wikidata": "Q110716465", "building": "retail", "name": "Shell", "shop": "convenience"}}, {"type": "way", "id": 693406974, "nodes": [6509779391, 6509779392, 6509779393, 6509779394, 6509779395, 6509779396, 6509779397, 6509779398, 6509779391], "tags": {"addr:city": "Sterling", "addr:housenumber": "44950", "addr:postcode": "20166", "addr:state": "VA", "addr:street": "Rudder Road", "brand": "APlus", "brand:wikidata": "Q4646934", "building": "retail", "name": "APlus", "opening_hours": "24/7", "phone": "+1 703-661-2164", "shop": "convenience", "website": "https://www.sunoco.com/locations/store/44950-rudder-rd-sterling-va-0514253400"}}, {"type": "way", "id": 701929067, "nodes": [6591877411, 7869472280, 6591877410, 7869472279, 6591877409, 6591877408, 6591877407, 6591877406, 7869472282, 7869472281, 6591877413, 6591877412, 6591877411], "tags": {"addr:city": "Sterling", "addr:housenumber": "45550", "addr:postcode": "20166", "addr:state": "VA", "addr:street": "Dulles Plaza", "atm": "yes", "brand": "Sheetz", "brand:wikidata": "Q7492551", "building": "retail", "internet_access": "wlan", "name": "Sheetz", "opening_hours": "24/7", "phone": "+1 571-525-2233", "ref": "622", "shop": "convenience", "website": "https://orderz.sheetz.com/#/main/location/store/00622"}}, {"type": "way", "id": 727105372, "nodes": [6814189105, 8827397691, 6814189104, 6814189111, 6814189110, 6814189109, 6814189108, 6814189107, 6814189106, 6814189105], "tags": {"addr:city": "Sterling", "addr:housenumber": "716", "addr:postcode": "20164", "addr:state": "VA", "addr:street": "West Church Road", "building": "retail", "shop": "convenience"}}, {"type": "way", "id": 832026164, "nodes": [7768164324, 7768164323, 7768164322, 7768164321, 7768164324], "tags": {"addr:city": "Ashburn", "addr:housenumber": "20050", "addr:postcode": "20147", "addr:state": "VA", "addr:street": "Ashbrook Commons Plaza", "building": "retail", "building:levels": "1", "name": "Filling Co. Gas and Grub", "opening_hours": "24/7", "payment:credit_cards": "yes", "payment:debit_cards": "yes", "phone": "+1 571-442-8044", "roof:shape": "flat", "shop": "convenience", "wheelchair": "yes"}}, {"type": "way", "id": 839698864, "nodes": [7835661256, 7835661255, 7835661254, 7835661253, 7835661256], "tags": {"addr:housenumber": "20435", "addr:street": "Russell Branch Parkway", "brand": "APlus", "brand:wikidata": "Q4646934", "building": "retail", "name": "APlus", "shop": "convenience", "wheelchair": "yes"}}, {"type": "way", "id": 892746164, "nodes": [8297311134, 8297311135, 8297311136, 8297311137, 8297311134], "tags": {"addr:housenumber": "42382", "addr:state": "VA", "addr:street": "Little River Turnpike", "brand": "Valero", "brand:wikidata": "Q1283291", "building": "yes", "name": "Valero", "shop": "convenience"}}, {"type": "way", "id": 916807464, "nodes": [8515245469, 8515245468, 8515245467, 9125416693, 9125416694, 8515245466, 9125416696, 9125416695, 8515245469], "tags": {"addr:city": "Ashburn", "addr:housenumber": "19910", "addr:postcode": "20147", "addr:state": "VA", "addr:street": "Riverside Commons Plaza", "brand": "Sheetz", "brand:wikidata": "Q7492551", "building": "retail", "building:levels": "1", "internet_access": "wlan", "name": "Sheetz", "opening_hours": "24/7", "outdoor_seating": "yes", "phone": "+1 571-831-3113", "roof:levels": "0", "roof:shape": "flat", "shop": "convenience", "wheelchair": "yes"}}, {"type": "way", "id": 941067727, "nodes": [8715330236, 8715329260, 8715328596, 8715330594, 8715329933, 8715328966, 8715328315, 8715330329, 8715329656, 8715328679, 8715328033, 8715330027, 8715330236], "tags": {"addr:city": "Sterling", "addr:housenumber": "23055", "addr:postcode": "20166", "addr:state": "VA", "addr:street": "Oakgrove Road", "brand": "Wawa", "brand:wikidata": "Q5936320", "building": "retail", "name": "Wawa", "self_service": "yes", "shop": "convenience"}}, {"type": "way", "id": 949473722, "nodes": [8789996150, 8789996062, 8789996537, 8789995868, 8789996150], "tags": {"addr:city": "Herndon", "addr:housenumber": "12219", "addr:postcode": "20170", "addr:state": "VA", "addr:street": "Leesburg Pike", "brand": "Shell", "brand:wikidata": "Q110716465", "building": "retail", "name": "Shell", "shop": "convenience"}}, {"type": "way", "id": 954433116, "nodes": [8833660738, 8833659958, 8833660013, 8833659715, 8833660578, 8833660290, 8833659890, 8833659572, 8833660452, 8833659760, 8833660738], "tags": {"brand": "Tiger Mart", "brand:wikidata": "Q57643977", "building": "yes", "name": "Tiger Mart", "shop": "convenience"}}, {"type": "way", "id": 956628953, "nodes": [8853412191, 8853412190, 8853412189, 8853412188, 8853412187, 8853412186, 8853412185, 8853412184, 8853412183, 8853412182, 8853412181, 8853412180, 8853412179, 8853412178, 8853412177, 8853412176, 8853412175, 8853412174, 8853412173, 8853412172, 8853412171, 8853412170, 8853412169, 8853412168, 8853412167, 8853412191], "tags": {"brand": "Sheetz", "brand:wikidata": "Q7492551", "building": "yes", "name": "Sheetz", "shop": "convenience"}}, {"type": "way", "id": 958909785, "nodes": [4629976496, 4629976491, 4629976492, 4629976493, 4629976494, 4629976495, 4629976496], "tags": {"addr:city": "Chantilly", "addr:housenumber": "43251", "addr:postcode": "20152", "addr:state": "VA", "addr:street": "Little River Turnpike", "brand": "7-Eleven", "brand:wikidata": "Q259340", "building": "commercial", "name": "7-Eleven", "phone": "+1 703-327-8863", "shop": "convenience", "website": "https://www.7-eleven.com/locations/va/chantilly/43251-john-mosby-hwy-32176"}}, {"type": "way", "id": 962143220, "nodes": [8899930023, 8899930022, 3889474940, 3889474937, 8899930023], "tags": {"brand": "APlus", "brand:wikidata": "Q4646934", "name": "APlus", "phone": "+1 703-435-1200", "shop": "convenience"}}, {"type": "way", "id": 964071660, "nodes": [8917565272, 8917564437, 8917566472, 8917565611, 8917565016, 8917564186, 8917566213, 8917565344, 8917564763, 8917566533, 8917565945, 8917565091, 8917564509, 8917565716, 8917565126, 9116952730, 8917564296, 8917565272], "tags": {"addr:city": "Sterling", "addr:housenumber": "21384", "addr:postcode": "20166", "addr:state": "VA", "addr:street": "Windmill Parc Drive", "atm": "yes", "brand": "Sheetz", "brand:wikidata": "Q7492551", "building": "yes", "internet_access": "wlan", "name": "Sheetz", "phone": "+1 703-956-9194", "ref": "666", "shop": "convenience", "website": "https://orderz.sheetz.com/#/main/location/store/00666"}}, {"type": "way", "id": 964071680, "nodes": [8917565820, 8917564970, 8917564712, 8917565891, 8917565820], "tags": {"addr:housenumber": "46141", "addr:postcode": "20166", "addr:state": "VA", "addr:street": "Woodshire Drive", "brand": "7-Eleven", "brand:wikidata": "Q259340", "building": "yes", "name": "7-Eleven", "phone": "+1 571-434-6298", "shop": "convenience", "website": "https://www.7-eleven.com/locations/va/sterling/46141-woodshire-dr-32701"}}, {"type": "way", "id": 983318376, "nodes": [9091889682, 9091889683, 9091889684, 9091889685, 9091889682], "tags": {"addr:city": "Sterling", "addr:housenumber": "22065", "addr:postcode": "20164", "addr:state": "VA", "addr:street": "Railcar Drive", "brand": "7-Eleven", "brand:wikidata": "Q259340", "building": "yes", "contact:website": "https://www.7-eleven.com/locations/va/sterling/22065-rail-car-dr-38941", "name": "7-Eleven", "shop": "convenience"}}, {"type": "way", "id": 986034049, "nodes": [9115255608, 9115255607, 9115255606, 9115255605, 9115255608], "tags": {"addr:housenumber": "42175", "addr:street": "Shapiro Drive", "building": "yes", "name": "Filling Co. Gas and Grub", "opening_hours": "24/7", "shop": "convenience", "wheelchair": "yes"}}, {"type": "way", "id": 987249860, "nodes": [9125419734, 9125419733, 9125419732, 9125419731, 9125419730, 9125419729, 9125419728, 9125419727, 9125419726, 9125419725, 9125419724, 9125419723, 9125419734], "tags": {"addr:city": "Leesburg", "addr:housenumber": "601", "addr:postcode": "20176", "addr:state": "VA", "addr:street": "California Drive Northeast", "brand": "Sheetz", "brand:wikidata": "Q7492551", "building": "retail", "building:levels": "1", "internet_access": "wlan", "name": "Sheetz", "opening_hours": "24/7", "outdoor_seating": "yes", "phone": "+1 571-442-8188", "roof:levels": "0", "roof:shape": "flat", "shop": "convenience"}}, {"type": "way", "id": 990537831, "nodes": [9123061512, 9152976845, 9152976844, 9152976843, 9152976842, 9152976841, 9152976840, 9152976839, 9152976838, 9152976837, 9152976836, 9152976835, 9152976834, 9152976833, 9123061512], "tags": {"addr:city": "Sterling", "addr:housenumber": "42855", "addr:postcode": "20166", "addr:state": "VA", "addr:street": "Yardley Ridge Drive", "brand": "Sheetz", "brand:wikidata": "Q7492551", "building": "yes", "name": "Sheetz", "shop": "convenience"}}, {"type": "way", "id": 1009716224, "nodes": [9316349110, 9316349109, 9316349108, 9316349107, 9316349106, 9316349105, 9316349104, 9316349103, 9316349102, 9316349101, 9316349100, 9316349099, 9316349110], "tags": {"addr:housenumber": "504", "addr:street": "Trimble Plaza Southeast", "brand": "APlus", "brand:wikidata": "Q4646934", "building": "yes", "name": "APlus", "shop": "convenience"}}, {"type": "way", "id": 1023999522, "nodes": [9442779818, 9442779817, 9442779816, 9442779814, 9442779813, 9442779812, 8796463216, 9442779815, 9442779818], "tags": {"addr:city": "Brambleton", "addr:housenumber": "42315", "addr:postcode": "20148", "addr:state": "VA", "addr:street": "Soave Drive", "building": "retail", "name": "Filling Co. Gas and Grub", "opening_hours": "24/7", "phone": "+1 703-345-2440", "shop": "convenience", "toilets": "yes"}}, {"type": "way", "id": 1043615974, "nodes": [9604562060, 9604562059, 9604562058, 9817472393, 9604562057, 9604562060], "tags": {"addr:city": "Leesburg", "addr:housenumber": "595", "addr:postcode": "20175", "addr:state": "VA", "addr:street": "Compass Point Plaza", "brand": "APlus", "brand:wikidata": "Q4646934", "building": "retail", "name": "APlus", "opening_hours": "Mo-Fr 05:00-23:00; Sa-Su 06:00-23:00", "phone": "+1 703-771-7061", "shop": "convenience"}}, {"type": "way", "id": 1052175634, "nodes": [9669439945, 9669439946, 9669439947, 9669439948, 9669439945], "tags": {"addr:city": "Fairfax", "addr:housenumber": "9700", "addr:postcode": "22031", "addr:state": "VA", "addr:street": "Fairfax Boulevard", "brand": "Wawa", "brand:wikidata": "Q5936320", "building": "retail", "building:levels": "1", "description": "Store #8671", "name": "Wawa", "opening_hours": "24/7", "phone": "+1 (703) 902-0014", "shop": "convenience"}}, {"type": "way", "id": 1155148309, "nodes": [10742626694, 10608796819, 10742626693, 10742626680, 10742626692, 10742626691, 10742626679, 10742626690, 10742626689, 10742626688, 10742626694], "tags": {"brand": "Sunoco", "brand:wikidata": "Q1423218", "building": "retail", "check_date": "2023-02-05", "name": "Sunoco", "shop": "convenience"}}, {"type": "way", "id": 1167459670, "nodes": [10857102069, 10857102070, 10857102071, 10857102072, 10857102069], "tags": {"building": "yes", "name": "Poole's Store", "shop": "convenience"}}, {"type": "way", "id": 1169430889, "nodes": [10874153899, 10874153898, 10874153897, 10874153896, 10874153899], "tags": {"addr:city": "Brambleton", "addr:housenumber": "42175", "addr:postcode": "20148", "addr:state": "VA", "addr:street": "Shapiro Drive", "amenity": "fuel", "atm": "yes", "brand": "Exxon", "brand:wikidata": "Q109675651", "building": "roof", "car_wash": "yes", "compressed_air": "yes", "fuel:propane": "yes", "layer": "1", "name": "Exxon", "opening_hours": "24/7", "operator": "Filling Co. Gas and Grub", "payment:exxonmobil_fleet": "yes", "ref": "200328359", "self_service": "yes", "shop": "convenience", "toilets": "yes", "website": "https://www.exxon.com/en/find-station/exxon-brambleton-va-brambletoncornerfillingco-200328359"}}, {"type": "way", "id": 1173549519, "nodes": [10903813073, 10903813074, 10903813075, 10903813076, 10903813073], "tags": {"brand": "Tiger Mart", "brand:wikidata": "Q57643977", "building": "yes", "name": "Tiger Mart", "shop": "convenience"}}, {"type": "way", "id": 1236242101, "nodes": [11478249818, 11478249819, 11478249820, 11478249821, 11478249818], "tags": {"addr:city": "Gaithersburg", "addr:housenumber": "751", "addr:postcode": "20879", "addr:state": "MD", "addr:street": "Progress Way", "amenity": "fast_food", "brand": "Sheetz", "brand:wikidata": "Q7492551", "building": "yes", "name": "Sheetz", "opening_hours": "24/7", "shop": "convenience"}}]}